{"type": "FeatureCollection", "features": [{"type": "Feature", "properties": {"name": "大阪", "nameEn": "Osaka", "country": "日本", "level": "city"}, "geometry": {"type": "MultiPolygon", "coordinates": [[[[135.39, 34.628], [135.399, 34.621], [135.403, 34.612], [135.417, 34.612], [135.42, 34.613], [135.418, 34.62], [135.406, 34.62], [135.405, 34.619], [135.402, 34.621], [135.399, 34.621], [135.39, 34.628]]], [[[135.417, 34.645], [135.416, 34.645], [135.405, 34.641], [135.404, 34.639], [135.401, 34.639], [135.399, 34.638], [135.399, 34.631], [135.404, 34.632], [135.412, 34.637], [135.415, 34.635], [135.407, 34.63], [135.41, 34.626], [135.421, 34.626], [135.422, 34.622], [135.432, 34.624], [135.442, 34.628], [135.439, 34.641], [135.432, 34.644], [135.424, 34.643], [135.417, 34.645]]], [[[135.398, 34.647], [135.405, 34.654], [135.4, 34.657], [135.379, 34.66], [135.373, 34.652], [135.379, 34.643], [135.392, 34.642], [135.395, 34.644], [135.396, 34.647], [135.398, 34.647]]], [[[135.46, 34.733], [135.455, 34.734], [135.449, 34.734], [135.447, 34.733], [135.446, 34.73], [135.446, 34.726], [135.448, 34.722], [135.446, 34.718], [135.442, 34.717], [135.437, 34.715], [135.43, 34.711], [135.426, 34.707], [135.425, 34.706], [135.416, 34.703], [135.413, 34.702], [135.409, 34.699], [135.407, 34.697], [135.408, 34.697], [135.41, 34.692], [135.412, 34.69], [135.417, 34.688], [135.422, 34.679], [135.412, 34.677], [135.409, 34.675], [135.408, 34.672], [135.41, 34.672], [135.414, 34.672], [135.418, 34.671], [135.417, 34.669], [135.417, 34.664], [135.424, 34.666], [135.424, 34.663], [135.417, 34.661], [135.414, 34.652], [135.416, 34.652], [135.418, 34.66], [135.42, 34.66], [135.419, 34.653], [135.421, 34.654], [135.422, 34.657], [135.423, 34.657], [135.428, 34.655], [135.429, 34.652], [135.428, 34.651], [135.444, 34.644], [135.447, 34.641], [135.448, 34.635], [135.453, 34.635], [135.453, 34.629], [135.45, 34.63], [135.448, 34.631], [135.449, 34.629], [135.448, 34.624], [135.447, 34.615], [135.446, 34.615], [135.445, 34.618], [135.443, 34.618], [135.441, 34.626], [135.434, 34.623], [135.431, 34.622], [135.432, 34.617], [135.43, 34.616], [135.433, 34.615], [135.433, 34.613], [135.427, 34.613], [135.426, 34.618], [135.423, 34.619], [135.423, 34.611], [135.446, 34.611], [135.446, 34.608], [135.455, 34.606], [135.469, 34.602], [135.478, 34.598], [135.482, 34.597], [135.494, 34.595], [135.497, 34.593], [135.499, 34.589], [135.5, 34.587], [135.502, 34.586], [135.506, 34.587], [135.508, 34.588], [135.517, 34.592], [135.522, 34.594], [135.526, 34.596], [135.528, 34.595], [135.53, 34.594], [135.531, 34.598], [135.535, 34.599], [135.543, 34.599], [135.544, 34.595], [135.547, 34.595], [135.55, 34.595], [135.562, 34.595], [135.564, 34.594], [135.565, 34.596], [135.567, 34.596], [135.568, 34.592], [135.569, 34.59], [135.569, 34.587], [135.571, 34.587], [135.571, 34.592], [135.572, 34.594], [135.577, 34.593], [135.58, 34.594], [135.58, 34.601], [135.581, 34.603], [135.587, 34.605], [135.587, 34.609], [135.584, 34.609], [135.583, 34.612], [135.576, 34.612], [135.576, 34.614], [135.569, 34.614], [135.565, 34.617], [135.562, 34.617], [135.562, 34.623], [135.564, 34.621], [135.566, 34.621], [135.575, 34.618], [135.576, 34.624], [135.577, 34.627], [135.576, 34.63], [135.575, 34.632], [135.575, 34.634], [135.569, 34.634], [135.568, 34.638], [135.565, 34.638], [135.565, 34.641], [135.561, 34.641], [135.561, 34.65], [135.562, 34.653], [135.559, 34.653], [135.559, 34.656], [135.563, 34.656], [135.564, 34.658], [135.562, 34.658], [135.561, 34.663], [135.557, 34.663], [135.557, 34.668], [135.562, 34.668], [135.562, 34.674], [135.563, 34.676], [135.564, 34.684], [135.566, 34.688], [135.574, 34.688], [135.576, 34.688], [135.579, 34.69], [135.583, 34.696], [135.585, 34.699], [135.587, 34.699], [135.59, 34.701], [135.59, 34.702], [135.595, 34.703], [135.591, 34.707], [135.593, 34.707], [135.597, 34.707], [135.599, 34.715], [135.595, 34.714], [135.59, 34.714], [135.588, 34.712], [135.586, 34.712], [135.587, 34.715], [135.587, 34.718], [135.584, 34.722], [135.583, 34.721], [135.583, 34.717], [135.575, 34.717], [135.578, 34.713], [135.575, 34.713], [135.574, 34.709], [135.57, 34.709], [135.57, 34.71], [135.569, 34.715], [135.566, 34.72], [135.565, 34.723], [135.563, 34.725], [135.56, 34.726], [135.555, 34.725], [135.555, 34.731], [135.553, 34.733], [135.557, 34.736], [135.56, 34.737], [135.561, 34.74], [135.557, 34.746], [135.556, 34.749], [135.558, 34.752], [135.56, 34.754], [135.558, 34.757], [135.551, 34.757], [135.55, 34.759], [135.551, 34.765], [135.551, 34.767], [135.549, 34.769], [135.544, 34.769], [135.542, 34.766], [135.541, 34.763], [135.539, 34.761], [135.534, 34.76], [135.532, 34.759], [135.529, 34.755], [135.532, 34.752], [135.528, 34.749], [135.525, 34.748], [135.522, 34.749], [135.519, 34.749], [135.519, 34.75], [135.516, 34.75], [135.513, 34.748], [135.51, 34.745], [135.508, 34.745], [135.506, 34.745], [135.499, 34.748], [135.5, 34.75], [135.495, 34.751], [135.494, 34.751], [135.491, 34.751], [135.488, 34.75], [135.485, 34.747], [135.485, 34.745], [135.483, 34.74], [135.481, 34.738], [135.476, 34.736], [135.472, 34.734], [135.47, 34.733], [135.47, 34.731], [135.467, 34.731], [135.46, 34.733]]]]}}, {"type": "Feature", "properties": {"name": "京都", "nameEn": "Kyoto", "country": "日本", "level": "city"}, "geometry": {"type": "MultiPolygon", "coordinates": [[[[135.598, 35.094], [135.598, 35.092], [135.594, 35.088], [135.594, 35.087], [135.592, 35.084], [135.592, 35.079], [135.59, 35.077], [135.593, 35.074], [135.594, 35.074], [135.596, 35.071], [135.6, 35.071], [135.602, 35.063], [135.605, 35.062], [135.608, 35.064], [135.608, 35.066], [135.617, 35.068], [135.619, 35.068], [135.622, 35.065], [135.619, 35.06], [135.619, 35.057], [135.617, 35.056], [135.618, 35.054], [135.618, 35.049], [135.618, 35.046], [135.618, 35.042], [135.621, 35.039], [135.622, 35.038], [135.626, 35.039], [135.629, 35.037], [135.63, 35.035], [135.635, 35.031], [135.637, 35.028], [135.638, 35.028], [135.638, 35.025], [135.64, 35.023], [135.639, 35.02], [135.636, 35.019], [135.64, 35.015], [135.643, 35.013], [135.644, 35.01], [135.647, 35.008], [135.646, 35.001], [135.644, 35.0], [135.642, 35.0], [135.639, 34.998], [135.639, 34.994], [135.638, 34.989], [135.639, 34.987], [135.638, 34.985], [135.638, 34.981], [135.64, 34.978], [135.641, 34.976], [135.635, 34.975], [135.63, 34.974], [135.628, 34.973], [135.624, 34.974], [135.616, 34.972], [135.613, 34.971], [135.614, 34.967], [135.615, 34.966], [135.616, 34.963], [135.618, 34.961], [135.619, 34.959], [135.617, 34.956], [135.615, 34.954], [135.616, 34.953], [135.614, 34.95], [135.614, 34.948], [135.612, 34.944], [135.611, 34.94], [135.608, 34.939], [135.608, 34.937], [135.603, 34.936], [135.602, 34.932], [135.601, 34.931], [135.601, 34.93], [135.6, 34.928], [135.603, 34.927], [135.605, 34.927], [135.608, 34.928], [135.612, 34.928], [135.615, 34.928], [135.617, 34.928], [135.619, 34.932], [135.623, 34.934], [135.624, 34.935], [135.628, 34.934], [135.629, 34.935], [135.633, 34.935], [135.634, 34.932], [135.637, 34.931], [135.638, 34.932], [135.643, 34.931], [135.643, 34.93], [135.646, 34.929], [135.648, 34.932], [135.651, 34.932], [135.654, 34.934], [135.657, 34.934], [135.659, 34.933], [135.66, 34.935], [135.664, 34.936], [135.665, 34.939], [135.666, 34.939], [135.672, 34.942], [135.672, 34.943], [135.675, 34.946], [135.68, 34.944], [135.685, 34.945], [135.688, 34.946], [135.691, 34.945], [135.695, 34.947], [135.696, 34.948], [135.694, 34.949], [135.689, 34.955], [135.688, 34.958], [135.688, 34.959], [135.686, 34.961], [135.685, 34.963], [135.683, 34.964], [135.684, 34.969], [135.686, 34.968], [135.688, 34.967], [135.692, 34.968], [135.693, 34.968], [135.7, 34.968], [135.7, 34.966], [135.703, 34.966], [135.702, 34.964], [135.706, 34.964], [135.706, 34.963], [135.71, 34.963], [135.709, 34.955], [135.711, 34.955], [135.714, 34.952], [135.717, 34.95], [135.717, 34.949], [135.717, 34.945], [135.718, 34.945], [135.718, 34.94], [135.717, 34.94], [135.717, 34.937], [135.714, 34.936], [135.714, 34.929], [135.715, 34.925], [135.717, 34.925], [135.715, 34.923], [135.715, 34.919], [135.714, 34.916], [135.712, 34.915], [135.71, 34.913], [135.709, 34.91], [135.707, 34.91], [135.707, 34.908], [135.705, 34.904], [135.706, 34.9], [135.703, 34.899], [135.706, 34.895], [135.709, 34.896], [135.71, 34.893], [135.712, 34.893], [135.712, 34.887], [135.716, 34.887], [135.715, 34.883], [135.724, 34.88], [135.732, 34.875], [135.733, 34.878], [135.73, 34.88], [135.727, 34.883], [135.729, 34.885], [135.727, 34.886], [135.723, 34.888], [135.721, 34.889], [135.72, 34.893], [135.717, 34.892], [135.716, 34.893], [135.719, 34.894], [135.716, 34.899], [135.72, 34.898], [135.721, 34.9], [135.725, 34.901], [135.726, 34.903], [135.728, 34.902], [135.732, 34.904], [135.735, 34.905], [135.74, 34.905], [135.74, 34.906], [135.743, 34.907], [135.745, 34.91], [135.748, 34.911], [135.753, 34.904], [135.761, 34.908], [135.771, 34.913], [135.776, 34.916], [135.781, 34.917], [135.784, 34.916], [135.79, 34.917], [135.79, 34.92], [135.791, 34.925], [135.792, 34.927], [135.792, 34.93], [135.795, 34.932], [135.798, 34.934], [135.8, 34.934], [135.803, 34.936], [135.806, 34.935], [135.808, 34.938], [135.811, 34.937], [135.812, 34.935], [135.813, 34.93], [135.816, 34.929], [135.818, 34.927], [135.825, 34.928], [135.829, 34.927], [135.831, 34.929], [135.831, 34.933], [135.83, 34.935], [135.839, 34.936], [135.84, 34.935], [135.845, 34.935], [135.844, 34.933], [135.84, 34.932], [135.84, 34.931], [135.845, 34.93], [135.849, 34.933], [135.849, 34.935], [135.85, 34.937], [135.85, 34.939], [135.848, 34.94], [135.848, 34.944], [135.845, 34.948], [135.847, 34.948], [135.849, 34.951], [135.85, 34.955], [135.852, 34.957], [135.859, 34.957], [135.859, 34.954], [135.863, 34.951], [135.865, 34.951], [135.869, 34.949], [135.875, 34.948], [135.878, 34.947], [135.876, 34.951], [135.875, 34.954], [135.873, 34.955], [135.871, 34.955], [135.868, 34.956], [135.864, 34.958], [135.863, 34.961], [135.861, 34.963], [135.856, 34.967], [135.856, 34.97], [135.852, 34.971], [135.853, 34.973], [135.855, 34.975], [135.854, 34.977], [135.857, 34.98], [135.857, 34.983], [135.855, 34.985], [135.851, 34.984], [135.849, 34.985], [135.849, 34.987], [135.85, 34.99], [135.849, 34.992], [135.842, 34.99], [135.835, 34.991], [135.827, 34.991], [135.829, 34.994], [135.833, 34.999], [135.835, 34.999], [135.837, 35.001], [135.834, 35.005], [135.833, 35.009], [135.831, 35.01], [135.827, 35.008], [135.824, 35.009], [135.822, 35.012], [135.825, 35.012], [135.832, 35.012], [135.835, 35.012], [135.836, 35.014], [135.835, 35.017], [135.835, 35.019], [135.834, 35.022], [135.83, 35.021], [135.827, 35.022], [135.826, 35.024], [135.828, 35.028], [135.827, 35.031], [135.826, 35.032], [135.825, 35.036], [135.822, 35.036], [135.819, 35.039], [135.817, 35.04], [135.815, 35.042], [135.816, 35.044], [135.815, 35.045], [135.816, 35.047], [135.819, 35.049], [135.821, 35.049], [135.827, 35.054], [135.832, 35.053], [135.835, 35.056], [135.836, 35.059], [135.836, 35.062], [135.835, 35.065], [135.834, 35.068], [135.832, 35.072], [135.834, 35.076], [135.838, 35.079], [135.838, 35.082], [135.84, 35.086], [135.839, 35.088], [135.835, 35.091], [135.838, 35.094], [135.838, 35.097], [135.84, 35.1], [135.843, 35.102], [135.844, 35.107], [135.843, 35.11], [135.845, 35.112], [135.845, 35.114], [135.847, 35.114], [135.848, 35.119], [135.85, 35.121], [135.85, 35.123], [135.849, 35.125], [135.85, 35.127], [135.852, 35.131], [135.852, 35.134], [135.85, 35.135], [135.849, 35.142], [135.853, 35.146], [135.853, 35.149], [135.855, 35.153], [135.857, 35.154], [135.857, 35.157], [135.856, 35.159], [135.85, 35.16], [135.847, 35.162], [135.846, 35.167], [135.844, 35.169], [135.844, 35.172], [135.842, 35.174], [135.843, 35.179], [135.841, 35.18], [135.84, 35.182], [135.841, 35.186], [135.842, 35.188], [135.842, 35.19], [135.84, 35.191], [135.837, 35.196], [135.837, 35.2], [135.835, 35.202], [135.836, 35.203], [135.835, 35.207], [135.834, 35.209], [135.831, 35.21], [135.833, 35.214], [135.83, 35.216], [135.831, 35.218], [135.829, 35.221], [135.831, 35.223], [135.835, 35.224], [135.837, 35.226], [135.838, 35.229], [135.837, 35.231], [135.838, 35.235], [135.838, 35.237], [135.835, 35.24], [135.84, 35.244], [135.84, 35.248], [135.843, 35.249], [135.844, 35.252], [135.842, 35.253], [135.844, 35.255], [135.846, 35.257], [135.845, 35.261], [135.847, 35.267], [135.852, 35.269], [135.855, 35.272], [135.855, 35.275], [135.858, 35.278], [135.859, 35.281], [135.861, 35.283], [135.858, 35.287], [135.858, 35.289], [135.855, 35.288], [135.852, 35.286], [135.85, 35.28], [135.848, 35.279], [135.842, 35.278], [135.84, 35.276], [135.835, 35.274], [135.83, 35.277], [135.827, 35.28], [135.825, 35.282], [135.826, 35.283], [135.82, 35.291], [135.821, 35.295], [135.821, 35.297], [135.82, 35.299], [135.817, 35.3], [135.815, 35.301], [135.816, 35.303], [135.814, 35.307], [135.811, 35.308], [135.811, 35.31], [135.811, 35.313], [135.809, 35.317], [135.804, 35.317], [135.795, 35.321], [135.795, 35.319], [135.79, 35.314], [135.79, 35.311], [135.788, 35.308], [135.783, 35.307], [135.782, 35.305], [135.778, 35.305], [135.778, 35.302], [135.778, 35.297], [135.778, 35.294], [135.781, 35.293], [135.781, 35.29], [135.78, 35.288], [135.778, 35.287], [135.777, 35.285], [135.775, 35.284], [135.772, 35.288], [135.769, 35.289], [135.766, 35.289], [135.763, 35.288], [135.761, 35.288], [135.754, 35.287], [135.749, 35.287], [135.748, 35.287], [135.742, 35.287], [135.738, 35.287], [135.736, 35.288], [135.734, 35.287], [135.733, 35.285], [135.73, 35.285], [135.729, 35.284], [135.73, 35.28], [135.732, 35.278], [135.726, 35.272], [135.727, 35.268], [135.725, 35.266], [135.722, 35.266], [135.718, 35.265], [135.712, 35.261], [135.709, 35.261], [135.707, 35.261], [135.704, 35.258], [135.702, 35.257], [135.699, 35.258], [135.696, 35.257], [135.693, 35.256], [135.691, 35.256], [135.689, 35.255], [135.686, 35.256], [135.684, 35.258], [135.681, 35.257], [135.676, 35.257], [135.675, 35.258], [135.67, 35.259], [135.667, 35.258], [135.665, 35.26], [135.661, 35.26], [135.659, 35.262], [135.655, 35.263], [135.652, 35.26], [135.65, 35.26], [135.646, 35.26], [135.644, 35.257], [135.64, 35.258], [135.637, 35.255], [135.636, 35.253], [135.631, 35.249], [135.629, 35.245], [135.629, 35.243], [135.629, 35.239], [135.63, 35.239], [135.63, 35.236], [135.624, 35.234], [135.62, 35.233], [135.619, 35.225], [135.616, 35.227], [135.613, 35.226], [135.612, 35.228], [135.611, 35.229], [135.609, 35.228], [135.604, 35.227], [135.602, 35.225], [135.599, 35.225], [135.598, 35.224], [135.595, 35.221], [135.591, 35.221], [135.59, 35.219], [135.59, 35.216], [135.592, 35.214], [135.594, 35.212], [135.597, 35.212], [135.597, 35.21], [135.596, 35.208], [135.596, 35.203], [135.592, 35.199], [135.593, 35.198], [135.591, 35.195], [135.589, 35.193], [135.587, 35.191], [135.584, 35.19], [135.582, 35.187], [135.583, 35.185], [135.579, 35.18], [135.576, 35.179], [135.576, 35.176], [135.573, 35.171], [135.574, 35.169], [135.572, 35.168], [135.573, 35.166], [135.57, 35.166], [135.568, 35.163], [135.568, 35.161], [135.566, 35.161], [135.564, 35.158], [135.562, 35.157], [135.561, 35.154], [135.561, 35.154], [135.56, 35.151], [135.561, 35.149], [135.562, 35.148], [135.562, 35.144], [135.56, 35.142], [135.559, 35.137], [135.561, 35.135], [135.561, 35.133], [135.564, 35.131], [135.566, 35.128], [135.568, 35.128], [135.57, 35.129], [135.571, 35.131], [135.575, 35.133], [135.578, 35.128], [135.582, 35.128], [135.584, 35.127], [135.589, 35.128], [135.592, 35.129], [135.595, 35.129], [135.595, 35.126], [135.591, 35.124], [135.592, 35.117], [135.596, 35.113], [135.597, 35.11], [135.602, 35.111], [135.604, 35.112], [135.607, 35.109], [135.61, 35.108], [135.609, 35.107], [135.612, 35.105], [135.617, 35.104], [135.615, 35.102], [135.616, 35.101], [135.615, 35.097], [135.61, 35.095], [135.605, 35.093], [135.605, 35.094], [135.601, 35.095], [135.598, 35.094]]]]}}, {"type": "Feature", "properties": {"name": "福冈", "nameEn": "Fukuoka", "country": "日本", "level": "city"}, "geometry": {"type": "MultiPolygon", "coordinates": [[[[130.311, 33.626], [130.309, 33.628], [130.307, 33.631], [130.308, 33.635], [130.304, 33.638], [130.3, 33.638], [130.298, 33.635], [130.298, 33.63], [130.3, 33.626], [130.298, 33.621], [130.295, 33.618], [130.295, 33.613], [130.296, 33.612], [130.298, 33.609], [130.299, 33.607], [130.302, 33.607], [130.304, 33.608], [130.308, 33.609], [130.309, 33.612], [130.311, 33.613], [130.313, 33.617], [130.314, 33.623], [130.311, 33.626]]], [[[130.426, 33.67], [130.425, 33.672], [130.421, 33.675], [130.416, 33.675], [130.402, 33.667], [130.395, 33.664], [130.394, 33.663], [130.397, 33.658], [130.399, 33.659], [130.402, 33.656], [130.414, 33.661], [130.416, 33.66], [130.417, 33.658], [130.426, 33.662], [130.428, 33.665], [130.426, 33.67]]], [[[130.442, 33.607], [130.445, 33.609], [130.441, 33.613], [130.447, 33.616], [130.45, 33.619], [130.452, 33.619], [130.454, 33.625], [130.457, 33.624], [130.458, 33.627], [130.461, 33.63], [130.466, 33.631], [130.47, 33.636], [130.472, 33.637], [130.474, 33.636], [130.475, 33.634], [130.478, 33.633], [130.478, 33.634], [130.481, 33.631], [130.482, 33.63], [130.482, 33.628], [130.486, 33.627], [130.488, 33.629], [130.492, 33.63], [130.494, 33.631], [130.494, 33.632], [130.494, 33.635], [130.493, 33.636], [130.494, 33.641], [130.492, 33.642], [130.494, 33.646], [130.492, 33.648], [130.49, 33.649], [130.487, 33.647], [130.485, 33.65], [130.483, 33.65], [130.481, 33.648], [130.479, 33.649], [130.479, 33.651], [130.48, 33.654], [130.477, 33.657], [130.475, 33.66], [130.475, 33.661], [130.469, 33.667], [130.471, 33.669], [130.471, 33.67], [130.467, 33.673], [130.467, 33.676], [130.469, 33.679], [130.467, 33.68], [130.466, 33.682], [130.464, 33.683], [130.461, 33.681], [130.46, 33.681], [130.455, 33.679], [130.454, 33.682], [130.45, 33.69], [130.448, 33.692], [130.448, 33.698], [130.444, 33.7], [130.441, 33.699], [130.439, 33.701], [130.439, 33.702], [130.436, 33.702], [130.432, 33.706], [130.43, 33.707], [130.431, 33.708], [130.423, 33.709], [130.424, 33.711], [130.418, 33.712], [130.417, 33.709], [130.416, 33.706], [130.417, 33.704], [130.416, 33.702], [130.411, 33.697], [130.4, 33.687], [130.388, 33.679], [130.38, 33.675], [130.371, 33.671], [130.362, 33.667], [130.358, 33.666], [130.353, 33.666], [130.347, 33.662], [130.338, 33.66], [130.331, 33.66], [130.324, 33.66], [130.319, 33.661], [130.317, 33.662], [130.315, 33.664], [130.314, 33.669], [130.314, 33.671], [130.312, 33.673], [130.311, 33.678], [130.309, 33.679], [130.307, 33.682], [130.306, 33.685], [130.304, 33.687], [130.299, 33.689], [130.297, 33.689], [130.295, 33.688], [130.29, 33.687], [130.29, 33.685], [130.286, 33.68], [130.289, 33.678], [130.289, 33.674], [130.29, 33.671], [130.292, 33.669], [130.292, 33.667], [130.294, 33.667], [130.294, 33.664], [130.298, 33.663], [130.299, 33.66], [130.302, 33.66], [130.308, 33.66], [130.312, 33.661], [130.312, 33.662], [130.316, 33.662], [130.319, 33.66], [130.325, 33.659], [130.327, 33.658], [130.334, 33.649], [130.338, 33.652], [130.339, 33.652], [130.343, 33.651], [130.346, 33.649], [130.35, 33.648], [130.355, 33.644], [130.357, 33.643], [130.36, 33.644], [130.361, 33.646], [130.359, 33.649], [130.359, 33.652], [130.36, 33.658], [130.361, 33.659], [130.364, 33.66], [130.367, 33.664], [130.37, 33.666], [130.382, 33.668], [130.391, 33.669], [130.398, 33.671], [130.402, 33.673], [130.405, 33.675], [130.403, 33.679], [130.404, 33.681], [130.408, 33.683], [130.415, 33.684], [130.418, 33.686], [130.423, 33.687], [130.427, 33.687], [130.43, 33.687], [130.432, 33.685], [130.433, 33.679], [130.429, 33.676], [130.426, 33.676], [130.425, 33.675], [130.427, 33.673], [130.43, 33.669], [130.434, 33.665], [130.435, 33.662], [130.433, 33.659], [130.425, 33.661], [130.405, 33.652], [130.406, 33.65], [130.413, 33.648], [130.415, 33.649], [130.418, 33.649], [130.422, 33.647], [130.422, 33.643], [130.421, 33.641], [130.411, 33.644], [130.41, 33.642], [130.407, 33.642], [130.404, 33.634], [130.41, 33.633], [130.408, 33.63], [130.405, 33.629], [130.403, 33.623], [130.404, 33.623], [130.412, 33.62], [130.415, 33.621], [130.414, 33.617], [130.405, 33.619], [130.401, 33.618], [130.4, 33.615], [130.406, 33.611], [130.408, 33.611], [130.406, 33.608], [130.399, 33.613], [130.396, 33.61], [130.4, 33.607], [130.402, 33.605], [130.396, 33.605], [130.399, 33.601], [130.395, 33.599], [130.394, 33.6], [130.395, 33.602], [130.39, 33.61], [130.385, 33.608], [130.388, 33.602], [130.385, 33.6], [130.388, 33.599], [130.392, 33.6], [130.393, 33.597], [130.386, 33.594], [130.381, 33.594], [130.38, 33.596], [130.383, 33.597], [130.381, 33.603], [130.377, 33.603], [130.378, 33.605], [130.374, 33.605], [130.373, 33.602], [130.372, 33.601], [130.369, 33.602], [130.364, 33.6], [130.365, 33.599], [130.363, 33.597], [130.361, 33.598], [130.359, 33.597], [130.357, 33.597], [130.353, 33.595], [130.348, 33.595], [130.341, 33.596], [130.335, 33.597], [130.332, 33.598], [130.33, 33.599], [130.327, 33.598], [130.328, 33.596], [130.327, 33.594], [130.324, 33.594], [130.323, 33.599], [130.314, 33.598], [130.31, 33.596], [130.314, 33.593], [130.312, 33.593], [130.311, 33.59], [130.312, 33.588], [130.306, 33.584], [130.298, 33.581], [130.293, 33.58], [130.29, 33.582], [130.287, 33.583], [130.285, 33.581], [130.284, 33.581], [130.277, 33.581], [130.271, 33.584], [130.267, 33.587], [130.265, 33.59], [130.266, 33.593], [130.265, 33.594], [130.261, 33.594], [130.26, 33.591], [130.252, 33.597], [130.246, 33.595], [130.245, 33.596], [130.249, 33.599], [130.263, 33.603], [130.264, 33.601], [130.264, 33.599], [130.266, 33.597], [130.271, 33.596], [130.274, 33.603], [130.275, 33.604], [130.274, 33.607], [130.275, 33.61], [130.273, 33.612], [130.27, 33.613], [130.266, 33.612], [130.262, 33.611], [130.254, 33.611], [130.248, 33.611], [130.24, 33.613], [130.234, 33.615], [130.231, 33.617], [130.232, 33.619], [130.231, 33.62], [130.229, 33.624], [130.23, 33.626], [130.227, 33.629], [130.225, 33.632], [130.224, 33.634], [130.226, 33.638], [130.229, 33.638], [130.228, 33.64], [130.229, 33.642], [130.233, 33.644], [130.235, 33.644], [130.237, 33.646], [130.237, 33.649], [130.236, 33.65], [130.232, 33.651], [130.231, 33.656], [130.229, 33.657], [130.226, 33.657], [130.225, 33.658], [130.222, 33.659], [130.217, 33.663], [130.215, 33.663], [130.21, 33.667], [130.208, 33.667], [130.206, 33.664], [130.207, 33.656], [130.209, 33.655], [130.209, 33.652], [130.208, 33.648], [130.206, 33.647], [130.204, 33.645], [130.201, 33.646], [130.201, 33.644], [130.201, 33.642], [130.198, 33.64], [130.202, 33.638], [130.204, 33.635], [130.204, 33.632], [130.207, 33.629], [130.205, 33.626], [130.205, 33.623], [130.206, 33.62], [130.206, 33.615], [130.205, 33.614], [130.207, 33.613], [130.206, 33.609], [130.21, 33.606], [130.21, 33.602], [130.207, 33.598], [130.21, 33.596], [130.21, 33.593], [130.212, 33.592], [130.212, 33.589], [130.214, 33.586], [130.216, 33.585], [130.216, 33.584], [130.219, 33.581], [130.223, 33.579], [130.223, 33.58], [130.227, 33.581], [130.229, 33.581], [130.23, 33.58], [130.234, 33.581], [130.238, 33.58], [130.241, 33.573], [130.241, 33.571], [130.239, 33.571], [130.239, 33.567], [130.237, 33.566], [130.239, 33.562], [130.239, 33.559], [130.236, 33.558], [130.236, 33.555], [130.239, 33.553], [130.24, 33.552], [130.243, 33.553], [130.243, 33.556], [130.245, 33.558], [130.249, 33.558], [130.25, 33.556], [130.255, 33.558], [130.257, 33.555], [130.262, 33.557], [130.266, 33.557], [130.267, 33.553], [130.266, 33.55], [130.27, 33.547], [130.278, 33.544], [130.284, 33.539], [130.289, 33.539], [130.288, 33.537], [130.289, 33.535], [130.289, 33.531], [130.287, 33.526], [130.287, 33.523], [130.288, 33.523], [130.29, 33.52], [130.292, 33.519], [130.291, 33.516], [130.292, 33.513], [130.288, 33.51], [130.284, 33.512], [130.286, 33.507], [130.28, 33.507], [130.278, 33.502], [130.275, 33.499], [130.275, 33.498], [130.273, 33.496], [130.273, 33.494], [130.274, 33.493], [130.276, 33.489], [130.273, 33.488], [130.274, 33.484], [130.272, 33.479], [130.274, 33.48], [130.277, 33.479], [130.278, 33.476], [130.282, 33.474], [130.284, 33.473], [130.286, 33.472], [130.288, 33.47], [130.291, 33.469], [130.293, 33.467], [130.295, 33.465], [130.296, 33.464], [130.298, 33.462], [130.302, 33.462], [130.303, 33.461], [130.306, 33.463], [130.311, 33.462], [130.313, 33.461], [130.314, 33.458], [130.32, 33.459], [130.321, 33.458], [130.323, 33.456], [130.326, 33.455], [130.332, 33.451], [130.335, 33.45], [130.336, 33.448], [130.336, 33.445], [130.34, 33.445], [130.341, 33.445], [130.343, 33.444], [130.345, 33.445], [130.35, 33.439], [130.351, 33.439], [130.352, 33.437], [130.356, 33.433], [130.363, 33.435], [130.365, 33.434], [130.367, 33.434], [130.369, 33.436], [130.371, 33.433], [130.373, 33.431], [130.375, 33.43], [130.378, 33.427], [130.378, 33.425], [130.383, 33.426], [130.384, 33.428], [130.387, 33.428], [130.389, 33.426], [130.391, 33.426], [130.396, 33.427], [130.398, 33.43], [130.396, 33.432], [130.398, 33.433], [130.396, 33.435], [130.396, 33.44], [130.399, 33.439], [130.403, 33.438], [130.404, 33.441], [130.402, 33.443], [130.4, 33.443], [130.399, 33.445], [130.399, 33.449], [130.397, 33.45], [130.393, 33.451], [130.388, 33.455], [130.387, 33.458], [130.386, 33.459], [130.387, 33.461], [130.386, 33.462], [130.388, 33.467], [130.386, 33.469], [130.386, 33.47], [130.383, 33.475], [130.383, 33.478], [130.381, 33.48], [130.382, 33.484], [130.381, 33.487], [130.38, 33.492], [130.379, 33.493], [130.379, 33.495], [130.378, 33.498], [130.376, 33.5], [130.374, 33.502], [130.371, 33.505], [130.375, 33.507], [130.377, 33.508], [130.381, 33.507], [130.382, 33.506], [130.386, 33.507], [130.389, 33.507], [130.391, 33.509], [130.394, 33.506], [130.396, 33.507], [130.398, 33.51], [130.397, 33.512], [130.398, 33.513], [130.4, 33.512], [130.401, 33.514], [130.404, 33.514], [130.404, 33.519], [130.406, 33.519], [130.406, 33.521], [130.411, 33.522], [130.412, 33.525], [130.415, 33.525], [130.417, 33.523], [130.419, 33.526], [130.421, 33.528], [130.424, 33.529], [130.425, 33.53], [130.427, 33.53], [130.428, 33.526], [130.427, 33.524], [130.428, 33.523], [130.433, 33.524], [130.434, 33.523], [130.437, 33.525], [130.435, 33.528], [130.436, 33.529], [130.439, 33.531], [130.44, 33.53], [130.443, 33.533], [130.44, 33.538], [130.44, 33.541], [130.44, 33.543], [130.442, 33.544], [130.442, 33.547], [130.444, 33.547], [130.446, 33.548], [130.449, 33.547], [130.45, 33.549], [130.452, 33.549], [130.454, 33.547], [130.455, 33.545], [130.457, 33.544], [130.46, 33.539], [130.463, 33.536], [130.466, 33.538], [130.469, 33.538], [130.469, 33.542], [130.471, 33.544], [130.468, 33.548], [130.471, 33.55], [130.469, 33.553], [130.462, 33.561], [130.462, 33.562], [130.467, 33.563], [130.469, 33.559], [130.471, 33.558], [130.471, 33.556], [130.474, 33.553], [130.478, 33.553], [130.48, 33.554], [130.482, 33.557], [130.485, 33.558], [130.486, 33.56], [130.486, 33.56], [130.483, 33.563], [130.482, 33.565], [130.481, 33.568], [130.477, 33.567], [130.478, 33.57], [130.479, 33.573], [130.479, 33.575], [130.477, 33.578], [130.476, 33.578], [130.473, 33.584], [130.469, 33.587], [130.467, 33.587], [130.466, 33.589], [130.463, 33.591], [130.459, 33.597], [130.456, 33.596], [130.453, 33.6], [130.451, 33.602], [130.446, 33.605], [130.443, 33.605], [130.442, 33.607]]]]}}, {"type": "Feature", "properties": {"name": "静冈", "nameEn": "Shizuoka", "country": "日本", "level": "city"}, "geometry": {"type": "MultiPolygon", "coordinates": [[[[138.088, 35.338], [138.086, 35.33], [138.083, 35.327], [138.083, 35.325], [138.086, 35.322], [138.089, 35.318], [138.093, 35.314], [138.097, 35.312], [138.098, 35.309], [138.098, 35.304], [138.105, 35.303], [138.106, 35.303], [138.114, 35.301], [138.115, 35.298], [138.118, 35.297], [138.12, 35.294], [138.126, 35.293], [138.129, 35.291], [138.131, 35.287], [138.135, 35.286], [138.137, 35.284], [138.136, 35.282], [138.136, 35.276], [138.137, 35.272], [138.137, 35.269], [138.138, 35.267], [138.144, 35.265], [138.146, 35.263], [138.146, 35.261], [138.145, 35.257], [138.146, 35.256], [138.153, 35.257], [138.158, 35.256], [138.162, 35.256], [138.178, 35.26], [138.179, 35.258], [138.178, 35.256], [138.183, 35.252], [138.183, 35.25], [138.187, 35.249], [138.19, 35.249], [138.194, 35.249], [138.198, 35.245], [138.199, 35.242], [138.203, 35.24], [138.197, 35.234], [138.198, 35.233], [138.201, 35.232], [138.202, 35.231], [138.202, 35.228], [138.199, 35.227], [138.197, 35.227], [138.196, 35.225], [138.194, 35.224], [138.193, 35.222], [138.19, 35.219], [138.188, 35.219], [138.186, 35.217], [138.185, 35.217], [138.185, 35.214], [138.186, 35.211], [138.186, 35.209], [138.188, 35.207], [138.188, 35.205], [138.185, 35.204], [138.182, 35.203], [138.183, 35.2], [138.18, 35.2], [138.183, 35.195], [138.184, 35.193], [138.186, 35.193], [138.188, 35.196], [138.19, 35.195], [138.189, 35.193], [138.191, 35.191], [138.193, 35.19], [138.192, 35.188], [138.194, 35.187], [138.196, 35.19], [138.199, 35.189], [138.199, 35.191], [138.197, 35.191], [138.198, 35.193], [138.201, 35.192], [138.202, 35.194], [138.199, 35.195], [138.199, 35.197], [138.204, 35.198], [138.206, 35.199], [138.207, 35.203], [138.21, 35.2], [138.211, 35.201], [138.211, 35.203], [138.215, 35.204], [138.218, 35.202], [138.22, 35.201], [138.224, 35.2], [138.225, 35.193], [138.232, 35.188], [138.233, 35.185], [138.234, 35.18], [138.238, 35.177], [138.239, 35.178], [138.239, 35.175], [138.238, 35.172], [138.238, 35.17], [138.236, 35.167], [138.231, 35.16], [138.228, 35.158], [138.224, 35.16], [138.221, 35.159], [138.217, 35.154], [138.216, 35.154], [138.214, 35.151], [138.212, 35.15], [138.21, 35.145], [138.205, 35.144], [138.201, 35.144], [138.199, 35.144], [138.196, 35.144], [138.192, 35.142], [138.191, 35.14], [138.189, 35.14], [138.188, 35.138], [138.184, 35.136], [138.185, 35.134], [138.184, 35.129], [138.185, 35.127], [138.185, 35.125], [138.186, 35.124], [138.189, 35.12], [138.191, 35.118], [138.192, 35.111], [138.193, 35.11], [138.19, 35.106], [138.189, 35.103], [138.19, 35.1], [138.189, 35.094], [138.192, 35.091], [138.199, 35.088], [138.2, 35.081], [138.204, 35.078], [138.205, 35.075], [138.208, 35.072], [138.21, 35.071], [138.206, 35.069], [138.204, 35.068], [138.202, 35.064], [138.2, 35.061], [138.201, 35.058], [138.201, 35.057], [138.201, 35.054], [138.2, 35.05], [138.195, 35.046], [138.196, 35.044], [138.196, 35.041], [138.197, 35.04], [138.194, 35.037], [138.192, 35.037], [138.191, 35.036], [138.193, 35.034], [138.194, 35.031], [138.192, 35.028], [138.191, 35.023], [138.188, 35.022], [138.189, 35.019], [138.189, 35.015], [138.19, 35.015], [138.195, 35.011], [138.199, 35.01], [138.201, 35.009], [138.203, 35.01], [138.209, 35.009], [138.212, 35.013], [138.211, 35.014], [138.215, 35.016], [138.216, 35.014], [138.217, 35.01], [138.216, 35.006], [138.215, 35.004], [138.222, 35.005], [138.224, 35.007], [138.227, 35.007], [138.23, 35.004], [138.238, 35.003], [138.24, 35.003], [138.24, 35.0], [138.245, 34.997], [138.247, 34.994], [138.253, 34.992], [138.254, 34.991], [138.259, 34.993], [138.261, 34.992], [138.261, 34.99], [138.263, 34.989], [138.265, 34.983], [138.265, 34.981], [138.268, 34.98], [138.267, 34.976], [138.268, 34.973], [138.272, 34.973], [138.275, 34.971], [138.276, 34.971], [138.279, 34.97], [138.282, 34.968], [138.284, 34.968], [138.283, 34.965], [138.283, 34.963], [138.286, 34.959], [138.286, 34.956], [138.287, 34.955], [138.287, 34.952], [138.292, 34.95], [138.292, 34.948], [138.292, 34.945], [138.295, 34.941], [138.294, 34.94], [138.295, 34.937], [138.299, 34.935], [138.304, 34.933], [138.307, 34.934], [138.31, 34.934], [138.315, 34.93], [138.316, 34.927], [138.317, 34.921], [138.319, 34.92], [138.322, 34.919], [138.326, 34.923], [138.33, 34.918], [138.33, 34.915], [138.333, 34.912], [138.336, 34.91], [138.34, 34.91], [138.344, 34.907], [138.34, 34.904], [138.343, 34.901], [138.348, 34.899], [138.35, 34.901], [138.35, 34.903], [138.352, 34.906], [138.355, 34.909], [138.355, 34.913], [138.357, 34.915], [138.362, 34.918], [138.367, 34.92], [138.368, 34.922], [138.367, 34.924], [138.369, 34.925], [138.369, 34.923], [138.371, 34.922], [138.382, 34.926], [138.382, 34.926], [138.389, 34.928], [138.399, 34.929], [138.402, 34.931], [138.403, 34.932], [138.412, 34.941], [138.415, 34.943], [138.43, 34.947], [138.451, 34.953], [138.464, 34.958], [138.472, 34.961], [138.478, 34.963], [138.487, 34.968], [138.502, 34.974], [138.508, 34.978], [138.509, 34.979], [138.514, 34.983], [138.519, 34.987], [138.522, 34.99], [138.523, 34.992], [138.526, 34.995], [138.527, 34.999], [138.528, 35.001], [138.529, 35.005], [138.533, 35.01], [138.534, 35.013], [138.534, 35.015], [138.532, 35.016], [138.528, 35.017], [138.522, 35.021], [138.516, 35.02], [138.518, 35.017], [138.519, 35.013], [138.518, 35.012], [138.52, 35.009], [138.517, 35.008], [138.518, 35.01], [138.515, 35.013], [138.511, 35.012], [138.505, 35.013], [138.502, 35.011], [138.503, 35.007], [138.505, 35.007], [138.504, 35.004], [138.501, 35.005], [138.501, 35.002], [138.502, 35.001], [138.51, 34.997], [138.512, 34.995], [138.511, 34.991], [138.509, 34.988], [138.507, 34.986], [138.503, 34.986], [138.501, 34.987], [138.5, 34.989], [138.502, 34.992], [138.498, 34.996], [138.498, 35.01], [138.495, 35.011], [138.496, 35.012], [138.496, 35.017], [138.491, 35.019], [138.491, 35.022], [138.495, 35.022], [138.495, 35.019], [138.496, 35.018], [138.499, 35.027], [138.497, 35.031], [138.494, 35.032], [138.498, 35.035], [138.5, 35.03], [138.502, 35.031], [138.5, 35.036], [138.503, 35.036], [138.506, 35.031], [138.508, 35.033], [138.506, 35.041], [138.509, 35.043], [138.511, 35.035], [138.513, 35.036], [138.511, 35.043], [138.513, 35.043], [138.515, 35.038], [138.517, 35.038], [138.524, 35.043], [138.519, 35.048], [138.523, 35.05], [138.527, 35.052], [138.531, 35.054], [138.534, 35.056], [138.536, 35.059], [138.538, 35.061], [138.541, 35.065], [138.543, 35.07], [138.544, 35.075], [138.546, 35.075], [138.547, 35.078], [138.549, 35.087], [138.55, 35.091], [138.554, 35.097], [138.556, 35.099], [138.559, 35.102], [138.57, 35.107], [138.574, 35.11], [138.578, 35.112], [138.588, 35.112], [138.594, 35.113], [138.601, 35.115], [138.605, 35.115], [138.618, 35.115], [138.623, 35.115], [138.628, 35.116], [138.629, 35.116], [138.635, 35.116], [138.639, 35.115], [138.632, 35.129], [138.63, 35.134], [138.618, 35.132], [138.617, 35.129], [138.613, 35.13], [138.607, 35.132], [138.605, 35.132], [138.605, 35.134], [138.603, 35.136], [138.603, 35.138], [138.6, 35.144], [138.596, 35.143], [138.593, 35.144], [138.587, 35.143], [138.581, 35.143], [138.577, 35.146], [138.577, 35.147], [138.572, 35.149], [138.568, 35.152], [138.565, 35.151], [138.564, 35.153], [138.559, 35.157], [138.558, 35.159], [138.556, 35.156], [138.553, 35.155], [138.552, 35.154], [138.548, 35.155], [138.545, 35.153], [138.539, 35.152], [138.539, 35.153], [138.538, 35.156], [138.536, 35.161], [138.533, 35.161], [138.53, 35.163], [138.53, 35.165], [138.526, 35.166], [138.526, 35.171], [138.524, 35.181], [138.522, 35.182], [138.52, 35.182], [138.518, 35.185], [138.519, 35.185], [138.519, 35.188], [138.518, 35.19], [138.52, 35.194], [138.523, 35.196], [138.522, 35.199], [138.521, 35.197], [138.517, 35.199], [138.516, 35.197], [138.514, 35.194], [138.514, 35.191], [138.512, 35.189], [138.506, 35.186], [138.504, 35.183], [138.501, 35.176], [138.498, 35.176], [138.496, 35.174], [138.496, 35.172], [138.492, 35.17], [138.492, 35.168], [138.488, 35.17], [138.487, 35.172], [138.484, 35.174], [138.482, 35.174], [138.478, 35.176], [138.478, 35.178], [138.472, 35.176], [138.47, 35.176], [138.466, 35.178], [138.465, 35.178], [138.461, 35.179], [138.457, 35.178], [138.452, 35.179], [138.449, 35.178], [138.441, 35.179], [138.44, 35.178], [138.431, 35.18], [138.428, 35.183], [138.427, 35.186], [138.425, 35.188], [138.425, 35.19], [138.419, 35.198], [138.418, 35.199], [138.416, 35.2], [138.414, 35.201], [138.408, 35.203], [138.403, 35.201], [138.4, 35.2], [138.399, 35.201], [138.397, 35.205], [138.394, 35.208], [138.393, 35.214], [138.393, 35.215], [138.392, 35.216], [138.391, 35.22], [138.392, 35.225], [138.391, 35.229], [138.389, 35.233], [138.388, 35.237], [138.387, 35.239], [138.386, 35.245], [138.386, 35.246], [138.382, 35.25], [138.381, 35.253], [138.378, 35.254], [138.377, 35.256], [138.375, 35.26], [138.374, 35.263], [138.371, 35.265], [138.367, 35.271], [138.369, 35.276], [138.369, 35.277], [138.367, 35.281], [138.368, 35.286], [138.367, 35.29], [138.369, 35.296], [138.371, 35.296], [138.373, 35.299], [138.371, 35.302], [138.371, 35.305], [138.368, 35.306], [138.368, 35.309], [138.365, 35.312], [138.359, 35.313], [138.358, 35.318], [138.356, 35.316], [138.353, 35.316], [138.35, 35.315], [138.346, 35.316], [138.343, 35.318], [138.34, 35.322], [138.338, 35.323], [138.336, 35.327], [138.332, 35.326], [138.328, 35.328], [138.325, 35.327], [138.319, 35.324], [138.317, 35.324], [138.314, 35.323], [138.311, 35.32], [138.309, 35.319], [138.305, 35.318], [138.303, 35.317], [138.297, 35.316], [138.294, 35.312], [138.29, 35.309], [138.285, 35.304], [138.282, 35.305], [138.28, 35.306], [138.276, 35.307], [138.275, 35.31], [138.27, 35.314], [138.262, 35.315], [138.258, 35.316], [138.255, 35.32], [138.255, 35.324], [138.251, 35.326], [138.252, 35.329], [138.251, 35.331], [138.249, 35.332], [138.25, 35.334], [138.253, 35.334], [138.257, 35.339], [138.256, 35.341], [138.255, 35.342], [138.254, 35.345], [138.255, 35.349], [138.254, 35.353], [138.252, 35.357], [138.251, 35.358], [138.251, 35.364], [138.247, 35.367], [138.244, 35.366], [138.243, 35.366], [138.237, 35.37], [138.235, 35.37], [138.232, 35.371], [138.233, 35.373], [138.233, 35.377], [138.234, 35.379], [138.236, 35.382], [138.237, 35.384], [138.238, 35.385], [138.24, 35.388], [138.243, 35.389], [138.246, 35.391], [138.247, 35.395], [138.246, 35.398], [138.246, 35.4], [138.251, 35.403], [138.252, 35.404], [138.258, 35.407], [138.258, 35.41], [138.258, 35.412], [138.258, 35.415], [138.258, 35.419], [138.259, 35.422], [138.26, 35.426], [138.259, 35.43], [138.259, 35.432], [138.257, 35.438], [138.255, 35.441], [138.255, 35.445], [138.25, 35.446], [138.248, 35.447], [138.246, 35.453], [138.244, 35.454], [138.244, 35.459], [138.246, 35.464], [138.253, 35.466], [138.255, 35.469], [138.256, 35.473], [138.258, 35.476], [138.259, 35.48], [138.259, 35.485], [138.26, 35.489], [138.259, 35.493], [138.259, 35.5], [138.26, 35.503], [138.26, 35.506], [138.262, 35.507], [138.267, 35.513], [138.269, 35.514], [138.267, 35.517], [138.265, 35.52], [138.263, 35.523], [138.263, 35.527], [138.261, 35.529], [138.258, 35.53], [138.257, 35.531], [138.258, 35.533], [138.258, 35.535], [138.259, 35.54], [138.26, 35.543], [138.26, 35.546], [138.259, 35.55], [138.26, 35.553], [138.257, 35.555], [138.252, 35.556], [138.25, 35.559], [138.246, 35.561], [138.244, 35.563], [138.245, 35.569], [138.242, 35.573], [138.24, 35.576], [138.241, 35.58], [138.241, 35.583], [138.239, 35.584], [138.239, 35.587], [138.242, 35.59], [138.244, 35.592], [138.242, 35.596], [138.243, 35.598], [138.242, 35.599], [138.241, 35.605], [138.236, 35.606], [138.235, 35.608], [138.236, 35.613], [138.236, 35.614], [138.234, 35.615], [138.237, 35.619], [138.236, 35.622], [138.233, 35.623], [138.232, 35.625], [138.229, 35.625], [138.228, 35.627], [138.231, 35.636], [138.232, 35.637], [138.232, 35.64], [138.23, 35.644], [138.228, 35.646], [138.222, 35.645], [138.219, 35.645], [138.215, 35.639], [138.211, 35.635], [138.208, 35.633], [138.203, 35.632], [138.203, 35.628], [138.203, 35.626], [138.203, 35.619], [138.202, 35.618], [138.205, 35.613], [138.206, 35.608], [138.202, 35.604], [138.2, 35.6], [138.196, 35.596], [138.195, 35.592], [138.195, 35.589], [138.191, 35.584], [138.189, 35.581], [138.19, 35.579], [138.19, 35.577], [138.186, 35.575], [138.184, 35.573], [138.182, 35.575], [138.178, 35.575], [138.176, 35.577], [138.175, 35.579], [138.174, 35.58], [138.173, 35.582], [138.167, 35.583], [138.162, 35.581], [138.161, 35.58], [138.16, 35.576], [138.156, 35.572], [138.152, 35.571], [138.151, 35.566], [138.149, 35.563], [138.146, 35.557], [138.143, 35.556], [138.144, 35.555], [138.148, 35.554], [138.151, 35.553], [138.154, 35.553], [138.156, 35.552], [138.156, 35.548], [138.159, 35.547], [138.159, 35.545], [138.156, 35.542], [138.155, 35.539], [138.151, 35.536], [138.148, 35.535], [138.147, 35.53], [138.143, 35.527], [138.142, 35.526], [138.138, 35.522], [138.139, 35.52], [138.141, 35.521], [138.146, 35.519], [138.146, 35.514], [138.145, 35.512], [138.144, 35.511], [138.143, 35.506], [138.141, 35.504], [138.139, 35.501], [138.14, 35.5], [138.142, 35.5], [138.144, 35.501], [138.149, 35.5], [138.154, 35.496], [138.158, 35.494], [138.162, 35.495], [138.165, 35.494], [138.163, 35.492], [138.161, 35.49], [138.158, 35.486], [138.159, 35.483], [138.156, 35.477], [138.157, 35.473], [138.16, 35.471], [138.16, 35.468], [138.158, 35.463], [138.157, 35.46], [138.155, 35.459], [138.151, 35.459], [138.148, 35.46], [138.146, 35.459], [138.141, 35.459], [138.139, 35.457], [138.135, 35.454], [138.132, 35.453], [138.128, 35.454], [138.122, 35.456], [138.12, 35.455], [138.12, 35.452], [138.119, 35.446], [138.121, 35.444], [138.123, 35.44], [138.124, 35.436], [138.12, 35.431], [138.121, 35.429], [138.129, 35.427], [138.133, 35.426], [138.137, 35.423], [138.14, 35.423], [138.139, 35.42], [138.139, 35.416], [138.138, 35.415], [138.135, 35.414], [138.134, 35.412], [138.135, 35.408], [138.139, 35.406], [138.144, 35.406], [138.146, 35.404], [138.15, 35.399], [138.153, 35.398], [138.153, 35.395], [138.151, 35.39], [138.148, 35.388], [138.146, 35.384], [138.144, 35.376], [138.142, 35.373], [138.142, 35.371], [138.141, 35.37], [138.138, 35.369], [138.135, 35.367], [138.129, 35.365], [138.126, 35.367], [138.124, 35.368], [138.118, 35.366], [138.115, 35.365], [138.11, 35.361], [138.107, 35.36], [138.106, 35.358], [138.104, 35.357], [138.1, 35.354], [138.097, 35.354], [138.095, 35.352], [138.094, 35.35], [138.096, 35.348], [138.097, 35.344], [138.096, 35.343], [138.096, 35.34], [138.093, 35.34], [138.088, 35.338]]]]}}, {"type": "Feature", "properties": {"name": "奈良", "nameEn": "Nara", "country": "日本", "level": "city"}, "geometry": {"type": "MultiPolygon", "coordinates": [[[[135.778, 34.723], [135.77, 34.726], [135.766, 34.725], [135.761, 34.726], [135.758, 34.728], [135.756, 34.727], [135.754, 34.726], [135.742, 34.726], [135.741, 34.724], [135.738, 34.726], [135.74, 34.728], [135.738, 34.729], [135.738, 34.726], [135.739, 34.724], [135.736, 34.721], [135.737, 34.719], [135.735, 34.718], [135.734, 34.716], [135.731, 34.714], [135.729, 34.71], [135.723, 34.709], [135.719, 34.706], [135.716, 34.707], [135.713, 34.706], [135.714, 34.703], [135.717, 34.702], [135.717, 34.699], [135.716, 34.697], [135.718, 34.695], [135.717, 34.693], [135.717, 34.69], [135.719, 34.688], [135.72, 34.684], [135.72, 34.683], [135.723, 34.678], [135.724, 34.674], [135.727, 34.672], [135.726, 34.667], [135.727, 34.665], [135.73, 34.667], [135.733, 34.666], [135.736, 34.665], [135.74, 34.663], [135.742, 34.66], [135.748, 34.66], [135.748, 34.658], [135.755, 34.657], [135.76, 34.658], [135.765, 34.657], [135.768, 34.659], [135.771, 34.661], [135.775, 34.662], [135.783, 34.661], [135.794, 34.661], [135.795, 34.657], [135.795, 34.652], [135.797, 34.653], [135.805, 34.653], [135.805, 34.649], [135.81, 34.649], [135.813, 34.647], [135.816, 34.648], [135.816, 34.643], [135.817, 34.637], [135.824, 34.637], [135.829, 34.637], [135.829, 34.635], [135.832, 34.635], [135.833, 34.634], [135.834, 34.634], [135.834, 34.636], [135.838, 34.636], [135.846, 34.639], [135.847, 34.637], [135.845, 34.636], [135.845, 34.634], [135.85, 34.634], [135.849, 34.632], [135.848, 34.631], [135.848, 34.63], [135.846, 34.627], [135.853, 34.627], [135.854, 34.624], [135.852, 34.623], [135.855, 34.62], [135.86, 34.619], [135.862, 34.619], [135.864, 34.62], [135.867, 34.621], [135.87, 34.615], [135.87, 34.613], [135.868, 34.61], [135.868, 34.609], [135.871, 34.61], [135.872, 34.608], [135.875, 34.612], [135.876, 34.611], [135.879, 34.613], [135.882, 34.612], [135.886, 34.611], [135.892, 34.609], [135.894, 34.611], [135.894, 34.614], [135.893, 34.616], [135.892, 34.618], [135.895, 34.623], [135.893, 34.625], [135.895, 34.627], [135.896, 34.631], [135.895, 34.633], [135.897, 34.635], [135.901, 34.635], [135.904, 34.633], [135.908, 34.632], [135.911, 34.631], [135.911, 34.63], [135.915, 34.629], [135.918, 34.63], [135.923, 34.63], [135.924, 34.629], [135.926, 34.632], [135.926, 34.64], [135.925, 34.642], [135.927, 34.645], [135.929, 34.644], [135.931, 34.642], [135.934, 34.642], [135.94, 34.642], [135.941, 34.639], [135.943, 34.638], [135.944, 34.635], [135.943, 34.633], [135.944, 34.631], [135.948, 34.631], [135.949, 34.627], [135.948, 34.627], [135.951, 34.624], [135.951, 34.622], [135.946, 34.621], [135.942, 34.618], [135.939, 34.615], [135.938, 34.613], [135.934, 34.612], [135.936, 34.61], [135.941, 34.607], [135.94, 34.604], [135.937, 34.604], [135.936, 34.602], [135.939, 34.599], [135.939, 34.596], [135.937, 34.594], [135.932, 34.596], [135.93, 34.594], [135.93, 34.592], [135.925, 34.59], [135.928, 34.589], [135.931, 34.586], [135.93, 34.584], [135.934, 34.583], [135.936, 34.579], [135.936, 34.574], [135.939, 34.575], [135.941, 34.571], [135.943, 34.569], [135.944, 34.567], [135.942, 34.565], [135.943, 34.563], [135.946, 34.56], [135.949, 34.559], [135.952, 34.559], [135.954, 34.558], [135.958, 34.559], [135.959, 34.558], [135.962, 34.558], [135.967, 34.56], [135.968, 34.559], [135.972, 34.559], [135.974, 34.56], [135.974, 34.563], [135.977, 34.565], [135.975, 34.568], [135.976, 34.571], [135.974, 34.572], [135.975, 34.576], [135.973, 34.579], [135.978, 34.581], [135.977, 34.585], [135.974, 34.585], [135.972, 34.585], [135.97, 34.587], [135.97, 34.589], [135.973, 34.593], [135.979, 34.596], [135.981, 34.599], [135.979, 34.602], [135.98, 34.604], [135.984, 34.604], [135.985, 34.606], [135.984, 34.608], [135.987, 34.608], [135.989, 34.611], [135.992, 34.61], [135.994, 34.611], [135.994, 34.614], [135.996, 34.616], [136.0, 34.619], [136.0, 34.622], [135.996, 34.623], [135.995, 34.626], [135.992, 34.627], [135.993, 34.628], [135.991, 34.63], [135.994, 34.631], [135.994, 34.635], [135.996, 34.636], [135.999, 34.638], [136.0, 34.641], [135.999, 34.643], [135.998, 34.646], [135.994, 34.651], [135.994, 34.653], [135.989, 34.656], [135.99, 34.658], [135.991, 34.661], [135.993, 34.663], [135.992, 34.664], [135.994, 34.667], [135.992, 34.668], [135.988, 34.669], [135.984, 34.667], [135.981, 34.665], [135.982, 34.663], [135.983, 34.663], [135.984, 34.66], [135.981, 34.658], [135.979, 34.656], [135.974, 34.655], [135.973, 34.655], [135.959, 34.653], [135.955, 34.654], [135.959, 34.656], [135.961, 34.657], [135.959, 34.66], [135.96, 34.666], [135.959, 34.668], [135.96, 34.671], [135.954, 34.674], [135.955, 34.675], [135.953, 34.677], [135.953, 34.681], [135.96, 34.687], [135.965, 34.686], [135.968, 34.685], [135.973, 34.689], [135.98, 34.691], [135.979, 34.693], [135.98, 34.694], [135.98, 34.699], [135.983, 34.698], [135.986, 34.699], [135.987, 34.692], [135.99, 34.687], [135.994, 34.686], [135.996, 34.687], [135.997, 34.685], [135.999, 34.684], [136.002, 34.685], [136.006, 34.684], [136.009, 34.683], [136.012, 34.684], [136.015, 34.684], [136.018, 34.685], [136.02, 34.69], [136.02, 34.692], [136.021, 34.695], [136.025, 34.696], [136.026, 34.695], [136.027, 34.697], [136.03, 34.694], [136.033, 34.694], [136.035, 34.694], [136.034, 34.7], [136.037, 34.7], [136.037, 34.702], [136.043, 34.703], [136.045, 34.698], [136.047, 34.697], [136.049, 34.7], [136.052, 34.7], [136.055, 34.703], [136.054, 34.705], [136.054, 34.706], [136.06, 34.707], [136.063, 34.709], [136.064, 34.708], [136.066, 34.71], [136.069, 34.712], [136.07, 34.713], [136.071, 34.715], [136.07, 34.717], [136.067, 34.718], [136.069, 34.72], [136.068, 34.724], [136.066, 34.726], [136.063, 34.726], [136.062, 34.731], [136.06, 34.732], [136.06, 34.734], [136.058, 34.736], [136.058, 34.737], [136.055, 34.739], [136.051, 34.739], [136.045, 34.737], [136.043, 34.736], [136.042, 34.734], [136.041, 34.731], [136.042, 34.728], [136.04, 34.724], [136.039, 34.72], [136.034, 34.718], [136.034, 34.716], [136.031, 34.714], [136.029, 34.713], [136.028, 34.71], [136.029, 34.706], [136.027, 34.706], [136.019, 34.709], [136.014, 34.708], [136.013, 34.709], [136.014, 34.711], [136.013, 34.714], [136.009, 34.717], [136.005, 34.717], [136.003, 34.716], [136.0, 34.713], [135.998, 34.714], [135.992, 34.712], [135.992, 34.714], [135.99, 34.715], [135.986, 34.715], [135.986, 34.718], [135.985, 34.719], [135.986, 34.722], [135.986, 34.726], [135.983, 34.732], [135.984, 34.734], [135.982, 34.735], [135.981, 34.737], [135.978, 34.737], [135.976, 34.739], [135.973, 34.742], [135.97, 34.74], [135.966, 34.743], [135.962, 34.74], [135.958, 34.741], [135.958, 34.745], [135.955, 34.748], [135.951, 34.746], [135.95, 34.744], [135.948, 34.745], [135.947, 34.743], [135.944, 34.741], [135.943, 34.737], [135.941, 34.739], [135.936, 34.74], [135.933, 34.738], [135.924, 34.741], [135.923, 34.745], [135.924, 34.746], [135.929, 34.753], [135.927, 34.754], [135.929, 34.757], [135.924, 34.758], [135.922, 34.755], [135.92, 34.753], [135.916, 34.754], [135.914, 34.749], [135.913, 34.747], [135.912, 34.746], [135.912, 34.744], [135.909, 34.741], [135.905, 34.737], [135.903, 34.736], [135.903, 34.733], [135.901, 34.731], [135.897, 34.731], [135.898, 34.727], [135.895, 34.725], [135.894, 34.72], [135.892, 34.718], [135.892, 34.716], [135.89, 34.709], [135.885, 34.714], [135.883, 34.713], [135.881, 34.714], [135.878, 34.712], [135.876, 34.714], [135.874, 34.713], [135.873, 34.711], [135.868, 34.711], [135.866, 34.709], [135.864, 34.706], [135.86, 34.707], [135.855, 34.706], [135.849, 34.706], [135.849, 34.708], [135.842, 34.709], [135.839, 34.712], [135.834, 34.712], [135.832, 34.713], [135.828, 34.712], [135.827, 34.714], [135.823, 34.712], [135.82, 34.712], [135.816, 34.714], [135.813, 34.715], [135.812, 34.717], [135.806, 34.718], [135.804, 34.72], [135.804, 34.722], [135.799, 34.723], [135.797, 34.721], [135.795, 34.722], [135.795, 34.723], [135.792, 34.725], [135.785, 34.724], [135.782, 34.723], [135.778, 34.723]]]]}}, {"type": "Feature", "properties": {"name": "宇治", "nameEn": "Uji", "country": "日本", "level": "city"}, "geometry": {"type": "MultiPolygon", "coordinates": [[[[135.761, 34.908], [135.765, 34.902], [135.763, 34.901], [135.766, 34.896], [135.766, 34.895], [135.767, 34.894], [135.765, 34.893], [135.764, 34.894], [135.76, 34.893], [135.76, 34.886], [135.766, 34.886], [135.766, 34.881], [135.767, 34.88], [135.767, 34.874], [135.76, 34.874], [135.76, 34.868], [135.77, 34.869], [135.776, 34.868], [135.781, 34.87], [135.786, 34.868], [135.789, 34.866], [135.794, 34.867], [135.797, 34.866], [135.802, 34.867], [135.804, 34.866], [135.806, 34.864], [135.809, 34.864], [135.812, 34.861], [135.817, 34.861], [135.82, 34.859], [135.825, 34.858], [135.826, 34.859], [135.829, 34.859], [135.83, 34.86], [135.827, 34.861], [135.826, 34.863], [135.828, 34.866], [135.829, 34.865], [135.832, 34.865], [135.833, 34.866], [135.837, 34.867], [135.838, 34.87], [135.843, 34.871], [135.844, 34.872], [135.845, 34.877], [135.849, 34.882], [135.855, 34.884], [135.858, 34.884], [135.86, 34.885], [135.859, 34.887], [135.863, 34.892], [135.867, 34.892], [135.868, 34.893], [135.867, 34.897], [135.866, 34.9], [135.863, 34.903], [135.863, 34.904], [135.867, 34.907], [135.87, 34.908], [135.871, 34.91], [135.871, 34.915], [135.869, 34.916], [135.869, 34.919], [135.872, 34.924], [135.871, 34.926], [135.877, 34.933], [135.88, 34.934], [135.879, 34.938], [135.877, 34.94], [135.876, 34.943], [135.879, 34.947], [135.878, 34.947], [135.875, 34.948], [135.869, 34.949], [135.865, 34.951], [135.863, 34.951], [135.859, 34.954], [135.859, 34.957], [135.852, 34.957], [135.85, 34.955], [135.849, 34.951], [135.847, 34.948], [135.845, 34.948], [135.848, 34.944], [135.848, 34.94], [135.85, 34.939], [135.85, 34.937], [135.849, 34.935], [135.849, 34.933], [135.845, 34.93], [135.84, 34.931], [135.84, 34.932], [135.844, 34.933], [135.845, 34.935], [135.84, 34.935], [135.839, 34.936], [135.83, 34.935], [135.831, 34.933], [135.831, 34.929], [135.829, 34.927], [135.825, 34.928], [135.818, 34.927], [135.816, 34.929], [135.813, 34.93], [135.812, 34.935], [135.811, 34.937], [135.808, 34.938], [135.806, 34.935], [135.803, 34.936], [135.8, 34.934], [135.798, 34.934], [135.795, 34.932], [135.792, 34.93], [135.792, 34.927], [135.791, 34.925], [135.79, 34.92], [135.79, 34.917], [135.784, 34.916], [135.781, 34.917], [135.776, 34.916], [135.771, 34.913], [135.761, 34.908]]]]}}, {"type": "Feature", "properties": {"name": "东京", "nameEn": "Edogawa", "country": "日本", "level": "city"}, "geometry": {"type": "MultiPolygon", "coordinates": [[[[139.732, 35.681], [139.733, 35.679], [139.737, 35.679], [139.739, 35.674], [139.745, 35.67], [139.748, 35.67], [139.75, 35.671], [139.752, 35.671], [139.759, 35.669], [139.76, 35.672], [139.764, 35.673], [139.766, 35.676], [139.771, 35.684], [139.77, 35.686], [139.768, 35.689], [139.78, 35.693], [139.783, 35.695], [139.783, 35.697], [139.78, 35.698], [139.781, 35.7], [139.775, 35.701], [139.773, 35.702], [139.773, 35.705], [139.77, 35.705], [139.77, 35.704], [139.766, 35.702], [139.769, 35.7], [139.766, 35.7], [139.763, 35.7], [139.762, 35.701], [139.757, 35.702], [139.749, 35.703], [139.745, 35.703], [139.737, 35.693], [139.732, 35.69], [139.731, 35.689], [139.73, 35.685], [139.732, 35.681]]], [[[139.428, 36.245], [139.426, 36.243], [139.427, 36.241], [139.424, 36.24], [139.422, 36.238], [139.42, 36.239], [139.415, 36.237], [139.414, 36.236], [139.409, 36.234], [139.411, 36.233], [139.414, 36.23], [139.416, 36.229], [139.418, 36.225], [139.418, 36.223], [139.416, 36.221], [139.417, 36.218], [139.419, 36.216], [139.419, 36.211], [139.424, 36.211], [139.429, 36.208], [139.443, 36.198], [139.444, 36.197], [139.454, 36.191], [139.462, 36.19], [139.466, 36.189], [139.474, 36.189], [139.494, 36.192], [139.493, 36.198], [139.492, 36.199], [139.491, 36.203], [139.489, 36.203], [139.489, 36.205], [139.486, 36.205], [139.484, 36.208], [139.484, 36.21], [139.479, 36.211], [139.479, 36.212], [139.468, 36.213], [139.46, 36.215], [139.459, 36.216], [139.46, 36.22], [139.463, 36.222], [139.463, 36.225], [139.463, 36.228], [139.46, 36.229], [139.455, 36.228], [139.455, 36.229], [139.455, 36.232], [139.45, 36.233], [139.449, 36.229], [139.441, 36.231], [139.441, 36.235], [139.438, 36.237], [139.433, 36.239], [139.434, 36.241], [139.432, 36.241], [139.428, 36.245]]], [[[139.783, 35.697], [139.783, 35.695], [139.78, 35.693], [139.768, 35.689], [139.77, 35.686], [139.771, 35.684], [139.766, 35.676], [139.764, 35.673], [139.76, 35.672], [139.759, 35.669], [139.762, 35.667], [139.763, 35.665], [139.763, 35.664], [139.76, 35.659], [139.766, 35.656], [139.765, 35.652], [139.768, 35.651], [139.774, 35.644], [139.79, 35.654], [139.788, 35.666], [139.788, 35.669], [139.787, 35.673], [139.788, 35.677], [139.789, 35.679], [139.793, 35.684], [139.793, 35.685], [139.792, 35.688], [139.791, 35.689], [139.789, 35.691], [139.789, 35.695], [139.783, 35.697]]], [[[138.554, 35.617], [138.546, 35.617], [138.544, 35.619], [138.54, 35.618], [138.535, 35.618], [138.533, 35.617], [138.534, 35.614], [138.535, 35.608], [138.532, 35.61], [138.528, 35.609], [138.528, 35.611], [138.526, 35.614], [138.524, 35.614], [138.525, 35.611], [138.52, 35.61], [138.518, 35.614], [138.518, 35.619], [138.516, 35.623], [138.511, 35.623], [138.507, 35.623], [138.507, 35.612], [138.507, 35.609], [138.51, 35.602], [138.51, 35.599], [138.51, 35.594], [138.505, 35.586], [138.5, 35.583], [138.497, 35.578], [138.499, 35.576], [138.496, 35.573], [138.497, 35.572], [138.503, 35.574], [138.511, 35.574], [138.516, 35.575], [138.521, 35.572], [138.524, 35.574], [138.525, 35.576], [138.525, 35.577], [138.531, 35.581], [138.534, 35.583], [138.539, 35.579], [138.543, 35.577], [138.544, 35.577], [138.547, 35.579], [138.548, 35.577], [138.547, 35.574], [138.545, 35.573], [138.544, 35.572], [138.546, 35.57], [138.541, 35.568], [138.539, 35.566], [138.541, 35.562], [138.54, 35.56], [138.541, 35.558], [138.538, 35.555], [138.54, 35.554], [138.541, 35.552], [138.547, 35.551], [138.55, 35.55], [138.554, 35.549], [138.559, 35.547], [138.562, 35.546], [138.566, 35.547], [138.567, 35.546], [138.569, 35.547], [138.573, 35.546], [138.574, 35.55], [138.579, 35.551], [138.584, 35.552], [138.584, 35.558], [138.58, 35.558], [138.579, 35.559], [138.579, 35.563], [138.577, 35.565], [138.577, 35.566], [138.576, 35.568], [138.576, 35.572], [138.573, 35.574], [138.569, 35.579], [138.565, 35.58], [138.56, 35.583], [138.561, 35.585], [138.563, 35.586], [138.563, 35.591], [138.56, 35.592], [138.556, 35.593], [138.558, 35.596], [138.56, 35.598], [138.559, 35.6], [138.559, 35.605], [138.556, 35.605], [138.554, 35.609], [138.554, 35.617]]], [[[139.716, 35.673], [139.715, 35.673], [139.714, 35.669], [139.709, 35.664], [139.712, 35.661], [139.715, 35.657], [139.718, 35.657], [139.722, 35.656], [139.722, 35.654], [139.723, 35.647], [139.723, 35.645], [139.719, 35.642], [139.717, 35.64], [139.718, 35.635], [139.72, 35.635], [139.722, 35.636], [139.726, 35.635], [139.727, 35.632], [139.729, 35.632], [139.731, 35.63], [139.732, 35.626], [139.734, 35.626], [139.735, 35.623], [139.744, 35.625], [139.744, 35.623], [139.746, 35.623], [139.751, 35.625], [139.753, 35.624], [139.758, 35.624], [139.758, 35.628], [139.759, 35.628], [139.759, 35.634], [139.755, 35.634], [139.753, 35.634], [139.755, 35.639], [139.756, 35.639], [139.76, 35.637], [139.76, 35.645], [139.759, 35.645], [139.761, 35.652], [139.765, 35.652], [139.766, 35.656], [139.76, 35.659], [139.763, 35.664], [139.763, 35.665], [139.762, 35.667], [139.759, 35.669], [139.752, 35.671], [139.75, 35.671], [139.748, 35.67], [139.745, 35.67], [139.739, 35.674], [139.737, 35.679], [139.733, 35.679], [139.732, 35.681], [139.728, 35.683], [139.726, 35.68], [139.724, 35.679], [139.719, 35.679], [139.72, 35.676], [139.718, 35.674], [139.716, 35.673]]], [[[139.684, 35.692], [139.685, 35.691], [139.683, 35.689], [139.686, 35.684], [139.687, 35.682], [139.695, 35.687], [139.7, 35.689], [139.703, 35.688], [139.705, 35.688], [139.707, 35.686], [139.707, 35.685], [139.711, 35.683], [139.714, 35.681], [139.713, 35.676], [139.716, 35.673], [139.718, 35.674], [139.72, 35.676], [139.719, 35.679], [139.724, 35.679], [139.726, 35.68], [139.728, 35.683], [139.732, 35.681], [139.73, 35.685], [139.731, 35.689], [139.732, 35.69], [139.737, 35.693], [139.745, 35.703], [139.743, 35.708], [139.743, 35.708], [139.736, 35.709], [139.733, 35.708], [139.732, 35.709], [139.726, 35.709], [139.724, 35.71], [139.722, 35.713], [139.72, 35.712], [139.715, 35.714], [139.714, 35.714], [139.712, 35.715], [139.706, 35.714], [139.704, 35.715], [139.706, 35.717], [139.706, 35.719], [139.704, 35.72], [139.706, 35.721], [139.705, 35.723], [139.7, 35.724], [139.698, 35.722], [139.696, 35.722], [139.689, 35.723], [139.684, 35.723], [139.682, 35.724], [139.681, 35.727], [139.678, 35.73], [139.676, 35.726], [139.674, 35.719], [139.677, 35.719], [139.679, 35.716], [139.679, 35.715], [139.681, 35.713], [139.681, 35.711], [139.683, 35.71], [139.688, 35.711], [139.694, 35.711], [139.688, 35.707], [139.688, 35.702], [139.688, 35.7], [139.685, 35.694], [139.684, 35.692]]], [[[139.745, 35.703], [139.749, 35.703], [139.757, 35.702], [139.762, 35.701], [139.763, 35.7], [139.766, 35.7], [139.769, 35.7], [139.766, 35.702], [139.77, 35.704], [139.77, 35.705], [139.77, 35.707], [139.772, 35.709], [139.768, 35.71], [139.768, 35.713], [139.766, 35.714], [139.766, 35.717], [139.768, 35.717], [139.764, 35.721], [139.765, 35.728], [139.762, 35.732], [139.761, 35.732], [139.76, 35.732], [139.753, 35.735], [139.75, 35.734], [139.749, 35.733], [139.747, 35.735], [139.745, 35.736], [139.742, 35.734], [139.743, 35.733], [139.741, 35.73], [139.739, 35.732], [139.736, 35.729], [139.737, 35.727], [139.732, 35.724], [139.726, 35.727], [139.723, 35.725], [139.725, 35.72], [139.722, 35.719], [139.718, 35.718], [139.717, 35.715], [139.722, 35.713], [139.724, 35.71], [139.726, 35.709], [139.732, 35.709], [139.733, 35.708], [139.736, 35.709], [139.743, 35.708], [139.743, 35.708], [139.745, 35.703]]], [[[139.77, 35.705], [139.773, 35.705], [139.773, 35.702], [139.775, 35.701], [139.781, 35.7], [139.78, 35.698], [139.783, 35.697], [139.789, 35.695], [139.794, 35.701], [139.797, 35.707], [139.801, 35.712], [139.807, 35.718], [139.809, 35.724], [139.81, 35.728], [139.801, 35.729], [139.795, 35.729], [139.794, 35.73], [139.792, 35.731], [139.79, 35.729], [139.788, 35.728], [139.784, 35.728], [139.78, 35.725], [139.777, 35.725], [139.774, 35.727], [139.773, 35.726], [139.77, 35.728], [139.767, 35.727], [139.766, 35.73], [139.762, 35.732], [139.765, 35.728], [139.764, 35.721], [139.768, 35.717], [139.766, 35.717], [139.766, 35.714], [139.768, 35.713], [139.768, 35.71], [139.772, 35.709], [139.77, 35.707], [139.77, 35.705]]], [[[139.789, 35.695], [139.789, 35.691], [139.791, 35.689], [139.793, 35.691], [139.796, 35.69], [139.797, 35.689], [139.8, 35.69], [139.801, 35.688], [139.805, 35.688], [139.805, 35.687], [139.81, 35.687], [139.809, 35.689], [139.812, 35.689], [139.811, 35.692], [139.813, 35.693], [139.82, 35.693], [139.819, 35.708], [139.83, 35.704], [139.831, 35.703], [139.835, 35.703], [139.835, 35.706], [139.84, 35.71], [139.839, 35.711], [139.836, 35.712], [139.834, 35.714], [139.833, 35.716], [139.835, 35.718], [139.837, 35.718], [139.84, 35.717], [139.843, 35.719], [139.825, 35.736], [139.82, 35.743], [139.818, 35.743], [139.815, 35.739], [139.815, 35.736], [139.812, 35.733], [139.81, 35.73], [139.81, 35.728], [139.809, 35.724], [139.807, 35.718], [139.801, 35.712], [139.797, 35.707], [139.794, 35.701], [139.789, 35.695]]], [[[139.827, 35.597], [139.82, 35.607], [139.806, 35.599], [139.807, 35.597], [139.806, 35.596], [139.804, 35.599], [139.793, 35.593], [139.806, 35.585], [139.814, 35.59], [139.819, 35.582], [139.832, 35.589], [139.827, 35.597]]], [[[139.819, 35.609], [139.811, 35.613], [139.799, 35.607], [139.794, 35.601], [139.79, 35.596], [139.792, 35.594], [139.813, 35.605], [139.819, 35.609]]], [[[139.771, 35.623], [139.774, 35.62], [139.773, 35.618], [139.787, 35.602], [139.793, 35.61], [139.781, 35.624], [139.785, 35.626], [139.782, 35.63], [139.775, 35.626], [139.771, 35.623]]], [[[139.791, 35.689], [139.792, 35.688], [139.793, 35.685], [139.793, 35.684], [139.789, 35.679], [139.788, 35.677], [139.787, 35.673], [139.788, 35.669], [139.788, 35.666], [139.79, 35.654], [139.774, 35.644], [139.779, 35.639], [139.779, 35.637], [139.785, 35.63], [139.787, 35.627], [139.792, 35.63], [139.799, 35.622], [139.802, 35.626], [139.8, 35.631], [139.802, 35.633], [139.801, 35.636], [139.807, 35.637], [139.806, 35.64], [139.82, 35.642], [139.823, 35.643], [139.834, 35.644], [139.834, 35.635], [139.821, 35.633], [139.822, 35.632], [139.836, 35.633], [139.84, 35.634], [139.841, 35.647], [139.846, 35.647], [139.846, 35.652], [139.846, 35.659], [139.847, 35.675], [139.849, 35.68], [139.846, 35.681], [139.847, 35.683], [139.846, 35.685], [139.848, 35.689], [139.848, 35.695], [139.846, 35.698], [139.842, 35.7], [139.835, 35.703], [139.831, 35.703], [139.83, 35.704], [139.819, 35.708], [139.82, 35.693], [139.813, 35.693], [139.811, 35.692], [139.812, 35.689], [139.809, 35.689], [139.81, 35.687], [139.805, 35.687], [139.805, 35.688], [139.801, 35.688], [139.8, 35.69], [139.797, 35.689], [139.796, 35.69], [139.793, 35.691], [139.791, 35.689]]], [[[139.695, 35.608], [139.697, 35.605], [139.701, 35.602], [139.712, 35.601], [139.715, 35.597], [139.717, 35.596], [139.719, 35.593], [139.721, 35.594], [139.728, 35.594], [139.729, 35.593], [139.73, 35.587], [139.736, 35.587], [139.738, 35.588], [139.748, 35.591], [139.751, 35.59], [139.755, 35.59], [139.755, 35.584], [139.763, 35.585], [139.762, 35.595], [139.765, 35.595], [139.767, 35.593], [139.773, 35.595], [139.773, 35.596], [139.763, 35.609], [139.762, 35.615], [139.76, 35.616], [139.76, 35.619], [139.759, 35.628], [139.758, 35.628], [139.758, 35.624], [139.753, 35.624], [139.751, 35.625], [139.746, 35.623], [139.744, 35.623], [139.744, 35.625], [139.735, 35.623], [139.734, 35.626], [139.732, 35.626], [139.731, 35.63], [139.729, 35.632], [139.727, 35.632], [139.726, 35.635], [139.722, 35.636], [139.72, 35.635], [139.718, 35.635], [139.717, 35.64], [139.719, 35.642], [139.718, 35.642], [139.716, 35.641], [139.713, 35.638], [139.713, 35.636], [139.715, 35.634], [139.714, 35.629], [139.707, 35.626], [139.702, 35.625], [139.701, 35.626], [139.696, 35.625], [139.701, 35.624], [139.704, 35.622], [139.7, 35.617], [139.698, 35.615], [139.696, 35.614], [139.695, 35.608]]], [[[139.718, 35.642], [139.715, 35.643], [139.709, 35.642], [139.699, 35.649], [139.693, 35.654], [139.687, 35.662], [139.685, 35.663], [139.68, 35.664], [139.675, 35.664], [139.676, 35.661], [139.679, 35.657], [139.683, 35.654], [139.685, 35.651], [139.684, 35.649], [139.685, 35.646], [139.684, 35.644], [139.686, 35.641], [139.686, 35.638], [139.684, 35.634], [139.682, 35.631], [139.68, 35.626], [139.678, 35.625], [139.676, 35.627], [139.672, 35.63], [139.664, 35.632], [139.662, 35.63], [139.662, 35.627], [139.663, 35.627], [139.664, 35.624], [139.666, 35.622], [139.667, 35.618], [139.663, 35.616], [139.663, 35.608], [139.667, 35.607], [139.673, 35.608], [139.677, 35.608], [139.679, 35.606], [139.68, 35.601], [139.681, 35.603], [139.683, 35.606], [139.685, 35.605], [139.684, 35.613], [139.686, 35.612], [139.691, 35.611], [139.695, 35.608], [139.696, 35.614], [139.698, 35.615], [139.7, 35.617], [139.704, 35.622], [139.701, 35.624], [139.696, 35.625], [139.701, 35.626], [139.702, 35.625], [139.707, 35.626], [139.714, 35.629], [139.715, 35.634], [139.713, 35.636], [139.713, 35.638], [139.716, 35.641], [139.718, 35.642]]], [[[139.68, 35.601], [139.681, 35.595], [139.676, 35.592], [139.674, 35.594], [139.67, 35.599], [139.669, 35.599], [139.664, 35.6], [139.663, 35.599], [139.659, 35.6], [139.657, 35.599], [139.655, 35.597], [139.653, 35.596], [139.657, 35.593], [139.655, 35.59], [139.657, 35.59], [139.663, 35.59], [139.667, 35.587], [139.669, 35.585], [139.671, 35.578], [139.676, 35.566], [139.679, 35.563], [139.681, 35.561], [139.686, 35.559], [139.69, 35.557], [139.692, 35.557], [139.698, 35.556], [139.703, 35.553], [139.704, 35.552], [139.703, 35.549], [139.698, 35.545], [139.698, 35.541], [139.7, 35.538], [139.702, 35.537], [139.706, 35.536], [139.711, 35.536], [139.717, 35.538], [139.722, 35.541], [139.726, 35.544], [139.731, 35.543], [139.733, 35.541], [139.735, 35.541], [139.738, 35.544], [139.739, 35.545], [139.747, 35.544], [139.75, 35.545], [139.756, 35.545], [139.768, 35.539], [139.796, 35.523], [139.795, 35.532], [139.801, 35.535], [139.804, 35.53], [139.8, 35.526], [139.802, 35.525], [139.8, 35.523], [139.803, 35.521], [139.811, 35.528], [139.811, 35.528], [139.826, 35.542], [139.823, 35.544], [139.82, 35.542], [139.812, 35.535], [139.807, 35.531], [139.803, 35.536], [139.809, 35.539], [139.804, 35.546], [139.802, 35.547], [139.799, 35.551], [139.786, 35.57], [139.784, 35.571], [139.78, 35.57], [139.771, 35.569], [139.764, 35.56], [139.761, 35.563], [139.759, 35.564], [139.756, 35.563], [139.753, 35.562], [139.751, 35.565], [139.743, 35.572], [139.743, 35.576], [139.746, 35.575], [139.75, 35.576], [139.754, 35.578], [139.756, 35.577], [139.762, 35.577], [139.768, 35.581], [139.769, 35.58], [139.767, 35.577], [139.783, 35.577], [139.785, 35.577], [139.787, 35.58], [139.782, 35.584], [139.779, 35.587], [139.776, 35.586], [139.772, 35.582], [139.77, 35.581], [139.769, 35.583], [139.777, 35.59], [139.773, 35.595], [139.767, 35.593], [139.765, 35.595], [139.762, 35.595], [139.763, 35.585], [139.755, 35.584], [139.755, 35.59], [139.751, 35.59], [139.748, 35.591], [139.738, 35.588], [139.736, 35.587], [139.73, 35.587], [139.729, 35.593], [139.728, 35.594], [139.721, 35.594], [139.719, 35.593], [139.717, 35.596], [139.715, 35.597], [139.712, 35.601], [139.701, 35.602], [139.697, 35.605], [139.695, 35.608], [139.691, 35.611], [139.686, 35.612], [139.684, 35.613], [139.685, 35.605], [139.683, 35.606], [139.681, 35.603], [139.68, 35.601]]], [[[139.444, 36.288], [139.444, 36.294], [139.439, 36.297], [139.437, 36.297], [139.435, 36.293], [139.43, 36.296], [139.431, 36.301], [139.427, 36.304], [139.429, 36.306], [139.426, 36.308], [139.423, 36.308], [139.422, 36.309], [139.42, 36.312], [139.417, 36.313], [139.416, 36.316], [139.416, 36.32], [139.418, 36.321], [139.416, 36.322], [139.415, 36.324], [139.419, 36.327], [139.421, 36.323], [139.422, 36.322], [139.424, 36.324], [139.427, 36.324], [139.427, 36.327], [139.423, 36.331], [139.423, 36.332], [139.418, 36.337], [139.415, 36.338], [139.413, 36.338], [139.397, 36.346], [139.393, 36.348], [139.392, 36.349], [139.388, 36.355], [139.383, 36.358], [139.378, 36.36], [139.37, 36.366], [139.369, 36.364], [139.363, 36.363], [139.36, 36.364], [139.358, 36.364], [139.355, 36.361], [139.351, 36.358], [139.35, 36.36], [139.345, 36.36], [139.341, 36.361], [139.341, 36.363], [139.339, 36.364], [139.338, 36.364], [139.335, 36.369], [139.331, 36.369], [139.329, 36.371], [139.328, 36.375], [139.323, 36.375], [139.318, 36.377], [139.314, 36.378], [139.311, 36.379], [139.309, 36.376], [139.302, 36.374], [139.299, 36.373], [139.297, 36.372], [139.295, 36.373], [139.287, 36.373], [139.28, 36.373], [139.279, 36.369], [139.273, 36.369], [139.273, 36.367], [139.272, 36.36], [139.267, 36.361], [139.269, 36.358], [139.269, 36.356], [139.267, 36.348], [139.265, 36.347], [139.264, 36.341], [139.265, 36.339], [139.266, 36.337], [139.264, 36.337], [139.264, 36.334], [139.262, 36.33], [139.264, 36.329], [139.264, 36.325], [139.269, 36.324], [139.269, 36.321], [139.268, 36.321], [139.269, 36.316], [139.268, 36.315], [139.268, 36.312], [139.267, 36.31], [139.268, 36.305], [139.267, 36.303], [139.263, 36.303], [139.258, 36.303], [139.256, 36.299], [139.256, 36.295], [139.264, 36.288], [139.265, 36.289], [139.27, 36.284], [139.274, 36.283], [139.274, 36.281], [139.276, 36.28], [139.275, 36.276], [139.274, 36.276], [139.272, 36.268], [139.269, 36.265], [139.27, 36.259], [139.27, 36.258], [139.274, 36.256], [139.279, 36.257], [139.281, 36.257], [139.283, 36.253], [139.281, 36.251], [139.273, 36.249], [139.278, 36.248], [139.286, 36.245], [139.298, 36.243], [139.298, 36.242], [139.307, 36.238], [139.31, 36.237], [139.316, 36.236], [139.321, 36.237], [139.328, 36.237], [139.328, 36.24], [139.328, 36.24], [139.333, 36.243], [139.337, 36.243], [139.34, 36.244], [139.339, 36.246], [139.343, 36.247], [139.346, 36.249], [139.347, 36.254], [139.351, 36.254], [139.354, 36.252], [139.358, 36.253], [139.362, 36.252], [139.368, 36.247], [139.377, 36.245], [139.379, 36.241], [139.383, 36.238], [139.385, 36.241], [139.384, 36.241], [139.384, 36.246], [139.382, 36.249], [139.382, 36.252], [139.386, 36.261], [139.388, 36.261], [139.389, 36.267], [139.398, 36.266], [139.399, 36.266], [139.403, 36.264], [139.404, 36.266], [139.399, 36.27], [139.406, 36.276], [139.414, 36.271], [139.42, 36.271], [139.426, 36.27], [139.43, 36.268], [139.431, 36.269], [139.435, 36.268], [139.434, 36.272], [139.434, 36.273], [139.432, 36.277], [139.431, 36.277], [139.43, 36.279], [139.43, 36.283], [139.433, 36.287], [139.436, 36.287], [139.441, 36.287], [139.444, 36.288]]], [[[139.594, 35.682], [139.588, 35.682], [139.587, 35.681], [139.588, 35.679], [139.587, 35.678], [139.587, 35.674], [139.583, 35.674], [139.584, 35.672], [139.589, 35.67], [139.589, 35.669], [139.59, 35.667], [139.588, 35.664], [139.59, 35.661], [139.59, 35.657], [139.592, 35.655], [139.593, 35.651], [139.592, 35.651], [139.592, 35.646], [139.59, 35.645], [139.588, 35.646], [139.587, 35.643], [139.584, 35.641], [139.586, 35.638], [139.588, 35.635], [139.591, 35.633], [139.591, 35.631], [139.594, 35.627], [139.592, 35.624], [139.59, 35.624], [139.589, 35.621], [139.59, 35.618], [139.593, 35.618], [139.597, 35.618], [139.6, 35.618], [139.606, 35.615], [139.61, 35.616], [139.612, 35.616], [139.616, 35.613], [139.618, 35.614], [139.624, 35.611], [139.625, 35.61], [139.631, 35.607], [139.632, 35.606], [139.635, 35.604], [139.637, 35.603], [139.64, 35.6], [139.649, 35.595], [139.65, 35.593], [139.655, 35.59], [139.657, 35.593], [139.653, 35.596], [139.655, 35.597], [139.657, 35.599], [139.659, 35.6], [139.663, 35.599], [139.664, 35.6], [139.669, 35.599], [139.67, 35.599], [139.674, 35.594], [139.676, 35.592], [139.681, 35.595], [139.68, 35.601], [139.679, 35.606], [139.677, 35.608], [139.673, 35.608], [139.667, 35.607], [139.663, 35.608], [139.663, 35.616], [139.667, 35.618], [139.666, 35.622], [139.664, 35.624], [139.663, 35.627], [139.662, 35.627], [139.662, 35.63], [139.664, 35.632], [139.672, 35.63], [139.676, 35.627], [139.678, 35.625], [139.68, 35.626], [139.682, 35.631], [139.684, 35.634], [139.686, 35.638], [139.686, 35.641], [139.684, 35.644], [139.685, 35.646], [139.684, 35.649], [139.685, 35.651], [139.683, 35.654], [139.679, 35.657], [139.676, 35.661], [139.675, 35.664], [139.673, 35.667], [139.673, 35.672], [139.662, 35.671], [139.662, 35.672], [139.655, 35.671], [139.65, 35.67], [139.648, 35.668], [139.641, 35.667], [139.639, 35.666], [139.633, 35.668], [139.625, 35.669], [139.625, 35.67], [139.622, 35.672], [139.613, 35.676], [139.612, 35.675], [139.617, 35.673], [139.616, 35.67], [139.611, 35.67], [139.609, 35.672], [139.609, 35.676], [139.603, 35.681], [139.598, 35.682], [139.594, 35.682]]], [[[139.662, 35.672], [139.662, 35.671], [139.673, 35.672], [139.673, 35.667], [139.675, 35.664], [139.68, 35.664], [139.685, 35.663], [139.687, 35.662], [139.693, 35.654], [139.699, 35.649], [139.709, 35.642], [139.715, 35.643], [139.718, 35.642], [139.719, 35.642], [139.723, 35.645], [139.723, 35.647], [139.722, 35.654], [139.722, 35.656], [139.718, 35.657], [139.715, 35.657], [139.712, 35.661], [139.709, 35.664], [139.714, 35.669], [139.715, 35.673], [139.716, 35.673], [139.713, 35.676], [139.714, 35.681], [139.711, 35.683], [139.707, 35.685], [139.707, 35.686], [139.705, 35.688], [139.703, 35.688], [139.7, 35.689], [139.695, 35.687], [139.687, 35.682], [139.686, 35.684], [139.683, 35.689], [139.685, 35.691], [139.684, 35.692], [139.68, 35.69], [139.676, 35.686], [139.675, 35.684], [139.671, 35.681], [139.668, 35.68], [139.665, 35.677], [139.664, 35.676], [139.662, 35.675], [139.662, 35.672]]], [[[139.664, 35.676], [139.665, 35.677], [139.668, 35.68], [139.671, 35.681], [139.675, 35.684], [139.676, 35.686], [139.68, 35.69], [139.684, 35.692], [139.685, 35.694], [139.688, 35.7], [139.688, 35.702], [139.688, 35.707], [139.694, 35.711], [139.688, 35.711], [139.683, 35.71], [139.681, 35.711], [139.681, 35.713], [139.679, 35.715], [139.679, 35.716], [139.677, 35.719], [139.674, 35.719], [139.676, 35.726], [139.678, 35.73], [139.678, 35.731], [139.675, 35.733], [139.672, 35.733], [139.67, 35.732], [139.665, 35.731], [139.662, 35.727], [139.656, 35.726], [139.652, 35.726], [139.647, 35.727], [139.647, 35.725], [139.644, 35.725], [139.64, 35.726], [139.638, 35.728], [139.636, 35.732], [139.635, 35.732], [139.633, 35.735], [139.628, 35.735], [139.625, 35.73], [139.624, 35.729], [139.629, 35.721], [139.632, 35.72], [139.632, 35.717], [139.637, 35.717], [139.642, 35.715], [139.642, 35.713], [139.643, 35.712], [139.652, 35.709], [139.658, 35.709], [139.658, 35.705], [139.661, 35.705], [139.661, 35.701], [139.662, 35.699], [139.661, 35.696], [139.661, 35.695], [139.664, 35.696], [139.667, 35.693], [139.667, 35.692], [139.661, 35.687], [139.661, 35.684], [139.659, 35.682], [139.663, 35.679], [139.665, 35.679], [139.664, 35.676]]], [[[138.311, 36.721], [138.316, 36.724], [138.318, 36.725], [138.324, 36.722], [138.327, 36.724], [138.331, 36.725], [138.335, 36.724], [138.337, 36.721], [138.337, 36.719], [138.341, 36.717], [138.344, 36.716], [138.343, 36.713], [138.339, 36.709], [138.341, 36.707], [138.348, 36.698], [138.348, 36.697], [138.352, 36.695], [138.356, 36.695], [138.356, 36.696], [138.36, 36.699], [138.361, 36.701], [138.365, 36.704], [138.368, 36.704], [138.376, 36.7], [138.379, 36.699], [138.383, 36.699], [138.385, 36.698], [138.389, 36.698], [138.395, 36.696], [138.399, 36.697], [138.401, 36.698], [138.406, 36.699], [138.403, 36.703], [138.402, 36.704], [138.4, 36.705], [138.399, 36.708], [138.397, 36.711], [138.395, 36.717], [138.392, 36.721], [138.394, 36.725], [138.393, 36.73], [138.395, 36.734], [138.394, 36.736], [138.39, 36.739], [138.389, 36.74], [138.388, 36.745], [138.388, 36.746], [138.388, 36.748], [138.391, 36.751], [138.393, 36.751], [138.395, 36.754], [138.395, 36.756], [138.398, 36.758], [138.398, 36.762], [138.397, 36.764], [138.392, 36.768], [138.388, 36.771], [138.383, 36.772], [138.385, 36.773], [138.387, 36.773], [138.391, 36.777], [138.393, 36.777], [138.394, 36.779], [138.394, 36.78], [138.396, 36.783], [138.401, 36.786], [138.404, 36.788], [138.405, 36.791], [138.405, 36.793], [138.406, 36.795], [138.406, 36.797], [138.404, 36.799], [138.4, 36.8], [138.397, 36.802], [138.397, 36.804], [138.395, 36.81], [138.395, 36.816], [138.396, 36.818], [138.397, 36.824], [138.398, 36.827], [138.395, 36.828], [138.394, 36.827], [138.39, 36.827], [138.388, 36.826], [138.384, 36.828], [138.383, 36.826], [138.379, 36.826], [138.376, 36.828], [138.377, 36.833], [138.375, 36.834], [138.372, 36.834], [138.37, 36.834], [138.368, 36.837], [138.363, 36.838], [138.362, 36.835], [138.354, 36.823], [138.354, 36.819], [138.358, 36.812], [138.359, 36.809], [138.357, 36.805], [138.354, 36.804], [138.347, 36.805], [138.345, 36.803], [138.34, 36.805], [138.338, 36.806], [138.335, 36.806], [138.331, 36.806], [138.33, 36.806], [138.325, 36.806], [138.322, 36.811], [138.319, 36.813], [138.318, 36.818], [138.314, 36.818], [138.311, 36.818], [138.308, 36.818], [138.307, 36.82], [138.304, 36.821], [138.301, 36.824], [138.298, 36.825], [138.3, 36.828], [138.301, 36.833], [138.3, 36.836], [138.298, 36.836], [138.294, 36.839], [138.285, 36.84], [138.279, 36.837], [138.276, 36.837], [138.277, 36.833], [138.276, 36.828], [138.279, 36.827], [138.279, 36.824], [138.281, 36.822], [138.282, 36.819], [138.281, 36.816], [138.28, 36.815], [138.276, 36.813], [138.277, 36.811], [138.277, 36.809], [138.279, 36.807], [138.281, 36.805], [138.281, 36.802], [138.279, 36.8], [138.279, 36.797], [138.283, 36.794], [138.28, 36.792], [138.28, 36.79], [138.283, 36.79], [138.286, 36.789], [138.29, 36.79], [138.291, 36.789], [138.294, 36.79], [138.3, 36.788], [138.301, 36.786], [138.301, 36.785], [138.303, 36.782], [138.301, 36.78], [138.302, 36.776], [138.3, 36.773], [138.3, 36.772], [138.301, 36.77], [138.301, 36.768], [138.303, 36.765], [138.304, 36.764], [138.303, 36.761], [138.3, 36.761], [138.301, 36.757], [138.298, 36.755], [138.294, 36.754], [138.294, 36.753], [138.298, 36.75], [138.294, 36.746], [138.296, 36.744], [138.298, 36.745], [138.305, 36.746], [138.309, 36.743], [138.311, 36.743], [138.309, 36.741], [138.308, 36.739], [138.308, 36.724], [138.311, 36.721]]], [[[139.625, 35.73], [139.622, 35.73], [139.616, 35.73], [139.615, 35.73], [139.609, 35.729], [139.602, 35.726], [139.6, 35.724], [139.596, 35.721], [139.594, 35.718], [139.589, 35.72], [139.587, 35.72], [139.585, 35.718], [139.585, 35.716], [139.586, 35.714], [139.587, 35.712], [139.591, 35.709], [139.595, 35.705], [139.594, 35.703], [139.59, 35.695], [139.588, 35.696], [139.587, 35.694], [139.592, 35.691], [139.594, 35.689], [139.591, 35.687], [139.594, 35.684], [139.594, 35.682], [139.598, 35.682], [139.603, 35.681], [139.609, 35.676], [139.609, 35.672], [139.611, 35.67], [139.616, 35.67], [139.617, 35.673], [139.612, 35.675], [139.613, 35.676], [139.622, 35.672], [139.625, 35.67], [139.625, 35.669], [139.633, 35.668], [139.639, 35.666], [139.641, 35.667], [139.648, 35.668], [139.65, 35.67], [139.655, 35.671], [139.662, 35.672], [139.662, 35.675], [139.664, 35.676], [139.665, 35.679], [139.663, 35.679], [139.659, 35.682], [139.661, 35.684], [139.661, 35.687], [139.667, 35.692], [139.667, 35.693], [139.664, 35.696], [139.661, 35.695], [139.661, 35.696], [139.662, 35.699], [139.661, 35.701], [139.661, 35.705], [139.658, 35.705], [139.658, 35.709], [139.652, 35.709], [139.643, 35.712], [139.642, 35.713], [139.642, 35.715], [139.637, 35.717], [139.632, 35.717], [139.632, 35.72], [139.629, 35.721], [139.624, 35.729], [139.625, 35.73]]], [[[139.678, 35.73], [139.681, 35.727], [139.682, 35.724], [139.684, 35.723], [139.689, 35.723], [139.696, 35.722], [139.698, 35.722], [139.7, 35.724], [139.705, 35.723], [139.706, 35.721], [139.704, 35.72], [139.706, 35.719], [139.706, 35.717], [139.704, 35.715], [139.706, 35.714], [139.712, 35.715], [139.714, 35.714], [139.715, 35.714], [139.72, 35.712], [139.722, 35.713], [139.717, 35.715], [139.718, 35.718], [139.722, 35.719], [139.725, 35.72], [139.723, 35.725], [139.726, 35.727], [139.732, 35.724], [139.737, 35.727], [139.736, 35.729], [139.739, 35.732], [139.741, 35.73], [139.743, 35.733], [139.742, 35.734], [139.745, 35.736], [139.747, 35.735], [139.749, 35.733], [139.75, 35.734], [139.753, 35.735], [139.75, 35.737], [139.748, 35.739], [139.747, 35.74], [139.744, 35.739], [139.744, 35.741], [139.741, 35.742], [139.736, 35.74], [139.733, 35.743], [139.733, 35.745], [139.728, 35.745], [139.727, 35.744], [139.725, 35.741], [139.72, 35.742], [139.72, 35.745], [139.711, 35.746], [139.709, 35.744], [139.708, 35.742], [139.704, 35.737], [139.702, 35.737], [139.701, 35.74], [139.699, 35.74], [139.699, 35.742], [139.695, 35.742], [139.693, 35.743], [139.69, 35.741], [139.681, 35.739], [139.679, 35.734], [139.679, 35.733], [139.678, 35.731], [139.678, 35.73]]], [[[139.276, 34.535], [139.275, 34.532], [139.273, 34.532], [139.269, 34.528], [139.268, 34.525], [139.267, 34.523], [139.268, 34.517], [139.271, 34.513], [139.276, 34.511], [139.281, 34.512], [139.284, 34.515], [139.291, 34.52], [139.293, 34.523], [139.293, 34.525], [139.291, 34.529], [139.285, 34.532], [139.281, 34.532], [139.276, 34.532], [139.276, 34.535]]], [[[128.995, 28.807], [128.99, 28.804], [128.987, 28.802], [128.985, 28.798], [128.981, 28.799], [128.981, 28.801], [128.977, 28.802], [128.974, 28.802], [128.974, 28.8], [128.974, 28.798], [128.975, 28.797], [128.977, 28.794], [128.978, 28.794], [128.982, 28.794], [128.984, 28.797], [128.987, 28.797], [128.99, 28.795], [128.995, 28.792], [128.999, 28.793], [129.002, 28.794], [129.004, 28.799], [129.003, 28.802], [128.999, 28.806], [128.995, 28.807]]], [[[129.201, 29.159], [129.195, 29.158], [129.193, 29.157], [129.189, 29.156], [129.187, 29.153], [129.187, 29.152], [129.189, 29.151], [129.194, 29.146], [129.2, 29.139], [129.204, 29.137], [129.206, 29.137], [129.207, 29.135], [129.211, 29.134], [129.213, 29.131], [129.216, 29.129], [129.22, 29.127], [129.222, 29.13], [129.219, 29.136], [129.22, 29.139], [129.219, 29.146], [129.222, 29.15], [129.223, 29.152], [129.221, 29.157], [129.219, 29.159], [129.216, 29.158], [129.213, 29.159], [129.209, 29.158], [129.208, 29.156], [129.204, 29.156], [129.204, 29.158], [129.201, 29.159]]], [[[129.595, 29.477], [129.594, 29.477], [129.594, 29.474], [129.589, 29.47], [129.587, 29.467], [129.586, 29.463], [129.584, 29.463], [129.587, 29.46], [129.59, 29.458], [129.596, 29.456], [129.596, 29.454], [129.594, 29.448], [129.594, 29.446], [129.596, 29.445], [129.6, 29.445], [129.605, 29.445], [129.606, 29.446], [129.609, 29.446], [129.613, 29.445], [129.615, 29.446], [129.618, 29.447], [129.62, 29.449], [129.62, 29.453], [129.618, 29.456], [129.616, 29.458], [129.613, 29.461], [129.611, 29.465], [129.611, 29.469], [129.609, 29.472], [129.605, 29.473], [129.601, 29.474], [129.6, 29.476], [129.595, 29.477]]], [[[129.74, 29.672], [129.739, 29.672], [129.731, 29.67], [129.729, 29.668], [129.726, 29.669], [129.721, 29.67], [129.719, 29.669], [129.716, 29.669], [129.713, 29.668], [129.707, 29.666], [129.704, 29.664], [129.7, 29.659], [129.693, 29.66], [129.694, 29.658], [129.692, 29.656], [129.689, 29.657], [129.686, 29.654], [129.685, 29.654], [129.684, 29.652], [129.684, 29.651], [129.689, 29.648], [129.689, 29.647], [129.685, 29.644], [129.684, 29.642], [129.685, 29.641], [129.689, 29.638], [129.69, 29.635], [129.69, 29.633], [129.688, 29.631], [129.689, 29.629], [129.69, 29.622], [129.692, 29.617], [129.694, 29.614], [129.697, 29.611], [129.697, 29.61], [129.696, 29.608], [129.697, 29.603], [129.701, 29.602], [129.702, 29.603], [129.707, 29.602], [129.708, 29.604], [129.713, 29.606], [129.711, 29.61], [129.712, 29.613], [129.718, 29.616], [129.719, 29.619], [129.724, 29.623], [129.728, 29.624], [129.733, 29.628], [129.734, 29.632], [129.737, 29.635], [129.739, 29.64], [129.739, 29.644], [129.74, 29.647], [129.738, 29.649], [129.739, 29.655], [129.739, 29.657], [129.74, 29.66], [129.742, 29.664], [129.743, 29.666], [129.743, 29.669], [129.74, 29.672]]], [[[129.852, 29.884], [129.85, 29.881], [129.848, 29.882], [129.846, 29.881], [129.846, 29.879], [129.841, 29.877], [129.841, 29.875], [129.839, 29.872], [129.839, 29.869], [129.836, 29.867], [129.835, 29.865], [129.835, 29.863], [129.834, 29.86], [129.836, 29.859], [129.836, 29.855], [129.838, 29.854], [129.838, 29.852], [129.838, 29.849], [129.839, 29.847], [129.842, 29.845], [129.842, 29.843], [129.845, 29.841], [129.847, 29.842], [129.85, 29.841], [129.853, 29.836], [129.853, 29.834], [129.857, 29.827], [129.859, 29.824], [129.861, 29.822], [129.866, 29.819], [129.867, 29.818], [129.873, 29.816], [129.878, 29.816], [129.886, 29.822], [129.888, 29.822], [129.891, 29.822], [129.893, 29.823], [129.897, 29.822], [129.903, 29.821], [129.905, 29.818], [129.906, 29.819], [129.909, 29.821], [129.91, 29.82], [129.913, 29.821], [129.917, 29.821], [129.918, 29.824], [129.914, 29.827], [129.913, 29.83], [129.91, 29.831], [129.907, 29.834], [129.905, 29.835], [129.903, 29.837], [129.895, 29.844], [129.895, 29.849], [129.893, 29.854], [129.894, 29.857], [129.896, 29.858], [129.897, 29.86], [129.895, 29.863], [129.891, 29.863], [129.89, 29.865], [129.892, 29.867], [129.893, 29.869], [129.892, 29.87], [129.889, 29.869], [129.887, 29.871], [129.886, 29.872], [129.883, 29.873], [129.88, 29.875], [129.875, 29.875], [129.872, 29.876], [129.868, 29.877], [129.868, 29.881], [129.866, 29.883], [129.863, 29.882], [129.859, 29.883], [129.857, 29.882], [129.855, 29.883], [129.852, 29.884]]], [[[129.537, 29.916], [129.535, 29.914], [129.533, 29.915], [129.53, 29.912], [129.531, 29.909], [129.531, 29.908], [129.531, 29.905], [129.532, 29.902], [129.532, 29.9], [129.531, 29.897], [129.532, 29.896], [129.538, 29.895], [129.542, 29.894], [129.547, 29.895], [129.548, 29.893], [129.552, 29.894], [129.554, 29.898], [129.553, 29.899], [129.552, 29.902], [129.552, 29.904], [129.55, 29.908], [129.548, 29.91], [129.543, 29.913], [129.539, 29.913], [129.537, 29.916]]], [[[129.917, 30.007], [129.912, 30.006], [129.909, 30.001], [129.912, 29.997], [129.914, 29.996], [129.915, 29.993], [129.915, 29.991], [129.912, 29.99], [129.907, 29.986], [129.904, 29.985], [129.905, 29.981], [129.902, 29.978], [129.9, 29.976], [129.901, 29.974], [129.906, 29.973], [129.906, 29.969], [129.907, 29.967], [129.905, 29.965], [129.908, 29.963], [129.91, 29.96], [129.912, 29.959], [129.917, 29.956], [129.92, 29.956], [129.924, 29.954], [129.927, 29.952], [129.929, 29.95], [129.935, 29.949], [129.942, 29.951], [129.944, 29.953], [129.947, 29.96], [129.945, 29.963], [129.945, 29.966], [129.942, 29.97], [129.937, 29.971], [129.934, 29.973], [129.931, 29.98], [129.928, 29.983], [129.924, 29.987], [129.923, 29.989], [129.92, 29.997], [129.92, 29.999], [129.917, 30.004], [129.917, 30.007]]], [[[139.761, 35.732], [139.763, 35.734], [139.765, 35.736], [139.771, 35.738], [139.769, 35.739], [139.768, 35.741], [139.766, 35.742], [139.764, 35.744], [139.76, 35.743], [139.757, 35.745], [139.758, 35.748], [139.755, 35.748], [139.755, 35.749], [139.751, 35.749], [139.75, 35.752], [139.752, 35.754], [139.757, 35.753], [139.758, 35.755], [139.751, 35.756], [139.749, 35.757], [139.749, 35.76], [139.76, 35.766], [139.758, 35.769], [139.751, 35.767], [139.746, 35.767], [139.74, 35.769], [139.736, 35.77], [139.736, 35.774], [139.738, 35.777], [139.738, 35.78], [139.739, 35.787], [139.734, 35.79], [139.733, 35.79], [139.727, 35.787], [139.723, 35.788], [139.722, 35.791], [139.719, 35.792], [139.709, 35.792], [139.705, 35.794], [139.698, 35.798], [139.695, 35.796], [139.691, 35.791], [139.69, 35.787], [139.691, 35.784], [139.695, 35.783], [139.699, 35.782], [139.702, 35.784], [139.703, 35.783], [139.702, 35.781], [139.706, 35.769], [139.707, 35.767], [139.71, 35.765], [139.711, 35.764], [139.713, 35.763], [139.716, 35.761], [139.722, 35.754], [139.723, 35.753], [139.721, 35.746], [139.72, 35.745], [139.72, 35.742], [139.725, 35.741], [139.727, 35.744], [139.728, 35.745], [139.733, 35.745], [139.733, 35.743], [139.736, 35.74], [139.741, 35.742], [139.744, 35.741], [139.744, 35.739], [139.747, 35.74], [139.748, 35.739], [139.75, 35.737], [139.753, 35.735], [139.76, 35.732], [139.761, 35.732]]], [[[139.762, 35.732], [139.766, 35.73], [139.767, 35.727], [139.77, 35.728], [139.773, 35.726], [139.774, 35.727], [139.777, 35.725], [139.78, 35.725], [139.784, 35.728], [139.788, 35.728], [139.79, 35.729], [139.792, 35.731], [139.794, 35.73], [139.795, 35.729], [139.801, 35.729], [139.81, 35.728], [139.81, 35.73], [139.812, 35.733], [139.815, 35.736], [139.815, 35.739], [139.813, 35.741], [139.809, 35.741], [139.804, 35.739], [139.801, 35.739], [139.795, 35.74], [139.793, 35.741], [139.789, 35.744], [139.788, 35.746], [139.791, 35.749], [139.791, 35.751], [139.79, 35.752], [139.782, 35.754], [139.769, 35.754], [139.758, 35.755], [139.757, 35.753], [139.752, 35.754], [139.75, 35.752], [139.751, 35.749], [139.755, 35.749], [139.755, 35.748], [139.758, 35.748], [139.757, 35.745], [139.76, 35.743], [139.764, 35.744], [139.766, 35.742], [139.768, 35.741], [139.769, 35.739], [139.771, 35.738], [139.765, 35.736], [139.763, 35.734], [139.761, 35.732], [139.762, 35.732]]], [[[139.72, 35.745], [139.721, 35.746], [139.723, 35.753], [139.722, 35.754], [139.716, 35.761], [139.713, 35.763], [139.711, 35.764], [139.71, 35.765], [139.707, 35.767], [139.706, 35.769], [139.702, 35.781], [139.703, 35.783], [139.702, 35.784], [139.699, 35.782], [139.695, 35.783], [139.691, 35.784], [139.69, 35.787], [139.691, 35.791], [139.695, 35.796], [139.695, 35.8], [139.692, 35.801], [139.689, 35.801], [139.68, 35.799], [139.674, 35.799], [139.669, 35.8], [139.665, 35.801], [139.653, 35.8], [139.648, 35.797], [139.646, 35.798], [139.644, 35.799], [139.641, 35.798], [139.64, 35.794], [139.637, 35.791], [139.634, 35.791], [139.632, 35.788], [139.632, 35.786], [139.628, 35.785], [139.628, 35.783], [139.625, 35.781], [139.625, 35.78], [139.625, 35.778], [139.629, 35.777], [139.63, 35.772], [139.635, 35.77], [139.635, 35.769], [139.641, 35.769], [139.643, 35.771], [139.648, 35.769], [139.651, 35.769], [139.661, 35.769], [139.667, 35.767], [139.669, 35.767], [139.671, 35.762], [139.674, 35.758], [139.673, 35.755], [139.675, 35.752], [139.672, 35.745], [139.676, 35.745], [139.681, 35.744], [139.679, 35.74], [139.681, 35.739], [139.69, 35.741], [139.693, 35.743], [139.695, 35.742], [139.699, 35.742], [139.699, 35.74], [139.701, 35.74], [139.702, 35.737], [139.704, 35.737], [139.708, 35.742], [139.709, 35.744], [139.711, 35.746], [139.72, 35.745]]], [[[139.625, 35.73], [139.628, 35.735], [139.633, 35.735], [139.635, 35.732], [139.636, 35.732], [139.638, 35.728], [139.64, 35.726], [139.644, 35.725], [139.647, 35.725], [139.647, 35.727], [139.652, 35.726], [139.656, 35.726], [139.662, 35.727], [139.665, 35.731], [139.67, 35.732], [139.672, 35.733], [139.675, 35.733], [139.678, 35.731], [139.679, 35.733], [139.679, 35.734], [139.681, 35.739], [139.679, 35.74], [139.681, 35.744], [139.676, 35.745], [139.672, 35.745], [139.675, 35.752], [139.673, 35.755], [139.674, 35.758], [139.671, 35.762], [139.669, 35.767], [139.667, 35.767], [139.661, 35.769], [139.651, 35.769], [139.648, 35.769], [139.643, 35.771], [139.641, 35.769], [139.635, 35.769], [139.635, 35.77], [139.63, 35.772], [139.629, 35.777], [139.625, 35.778], [139.625, 35.78], [139.624, 35.774], [139.626, 35.773], [139.624, 35.771], [139.623, 35.767], [139.618, 35.767], [139.617, 35.768], [139.617, 35.77], [139.615, 35.771], [139.61, 35.771], [139.609, 35.769], [139.606, 35.771], [139.603, 35.771], [139.599, 35.769], [139.597, 35.771], [139.598, 35.772], [139.604, 35.775], [139.597, 35.776], [139.597, 35.778], [139.594, 35.779], [139.593, 35.777], [139.589, 35.779], [139.587, 35.775], [139.584, 35.775], [139.584, 35.773], [139.582, 35.771], [139.578, 35.771], [139.577, 35.768], [139.574, 35.768], [139.575, 35.766], [139.57, 35.765], [139.571, 35.763], [139.568, 35.764], [139.565, 35.762], [139.563, 35.762], [139.568, 35.755], [139.568, 35.753], [139.569, 35.752], [139.568, 35.75], [139.569, 35.748], [139.567, 35.747], [139.568, 35.743], [139.568, 35.738], [139.567, 35.736], [139.569, 35.734], [139.566, 35.727], [139.565, 35.724], [139.566, 35.722], [139.574, 35.719], [139.576, 35.718], [139.582, 35.714], [139.587, 35.712], [139.586, 35.714], [139.585, 35.716], [139.585, 35.718], [139.587, 35.72], [139.589, 35.72], [139.594, 35.718], [139.596, 35.721], [139.6, 35.724], [139.602, 35.726], [139.609, 35.729], [139.615, 35.73], [139.616, 35.73], [139.622, 35.73], [139.625, 35.73]]], [[[139.82, 35.743], [139.817, 35.748], [139.813, 35.754], [139.814, 35.76], [139.817, 35.761], [139.82, 35.761], [139.82, 35.756], [139.823, 35.756], [139.824, 35.762], [139.826, 35.762], [139.826, 35.758], [139.828, 35.757], [139.831, 35.759], [139.831, 35.762], [139.832, 35.764], [139.835, 35.763], [139.838, 35.763], [139.838, 35.766], [139.842, 35.766], [139.845, 35.769], [139.851, 35.77], [139.852, 35.766], [139.856, 35.764], [139.858, 35.766], [139.859, 35.769], [139.858, 35.771], [139.852, 35.777], [139.85, 35.78], [139.847, 35.783], [139.845, 35.788], [139.844, 35.791], [139.844, 35.794], [139.847, 35.796], [139.844, 35.799], [139.838, 35.801], [139.837, 35.8], [139.833, 35.795], [139.827, 35.794], [139.823, 35.795], [139.821, 35.797], [139.82, 35.8], [139.821, 35.805], [139.823, 35.809], [139.825, 35.81], [139.825, 35.812], [139.823, 35.814], [139.821, 35.815], [139.82, 35.812], [139.817, 35.81], [139.814, 35.808], [139.812, 35.808], [139.805, 35.809], [139.802, 35.809], [139.8, 35.807], [139.795, 35.805], [139.792, 35.805], [139.787, 35.807], [139.781, 35.807], [139.779, 35.808], [139.773, 35.816], [139.771, 35.817], [139.768, 35.818], [139.766, 35.816], [139.76, 35.812], [139.757, 35.812], [139.755, 35.81], [139.752, 35.811], [139.751, 35.81], [139.751, 35.806], [139.754, 35.804], [139.761, 35.797], [139.76, 35.795], [139.755, 35.79], [139.756, 35.789], [139.754, 35.786], [139.75, 35.786], [139.747, 35.787], [139.746, 35.784], [139.745, 35.783], [139.738, 35.78], [139.738, 35.777], [139.736, 35.774], [139.736, 35.77], [139.74, 35.769], [139.746, 35.767], [139.751, 35.767], [139.758, 35.769], [139.76, 35.766], [139.749, 35.76], [139.749, 35.757], [139.751, 35.756], [139.758, 35.755], [139.769, 35.754], [139.782, 35.754], [139.79, 35.752], [139.791, 35.751], [139.791, 35.749], [139.788, 35.746], [139.789, 35.744], [139.793, 35.741], [139.795, 35.74], [139.801, 35.739], [139.804, 35.739], [139.809, 35.741], [139.813, 35.741], [139.815, 35.739], [139.818, 35.743], [139.82, 35.743]]], [[[139.843, 35.719], [139.851, 35.711], [139.855, 35.713], [139.855, 35.714], [139.861, 35.715], [139.864, 35.713], [139.868, 35.713], [139.868, 35.715], [139.866, 35.719], [139.869, 35.724], [139.871, 35.725], [139.87, 35.729], [139.872, 35.729], [139.872, 35.733], [139.873, 35.735], [139.877, 35.739], [139.877, 35.741], [139.88, 35.742], [139.885, 35.745], [139.881, 35.749], [139.883, 35.75], [139.89, 35.751], [139.883, 35.759], [139.883, 35.762], [139.88, 35.767], [139.881, 35.772], [139.883, 35.773], [139.888, 35.776], [139.893, 35.778], [139.894, 35.781], [139.893, 35.783], [139.888, 35.784], [139.882, 35.782], [139.877, 35.781], [139.874, 35.782], [139.871, 35.785], [139.871, 35.788], [139.874, 35.791], [139.876, 35.792], [139.877, 35.794], [139.875, 35.796], [139.871, 35.797], [139.868, 35.796], [139.864, 35.794], [139.86, 35.796], [139.859, 35.794], [139.858, 35.792], [139.856, 35.791], [139.852, 35.792], [139.847, 35.796], [139.844, 35.794], [139.844, 35.791], [139.845, 35.788], [139.847, 35.783], [139.85, 35.78], [139.852, 35.777], [139.858, 35.771], [139.859, 35.769], [139.858, 35.766], [139.856, 35.764], [139.852, 35.766], [139.851, 35.77], [139.845, 35.769], [139.842, 35.766], [139.838, 35.766], [139.838, 35.763], [139.835, 35.763], [139.832, 35.764], [139.831, 35.762], [139.831, 35.759], [139.828, 35.757], [139.826, 35.758], [139.826, 35.762], [139.824, 35.762], [139.823, 35.756], [139.82, 35.756], [139.82, 35.761], [139.817, 35.761], [139.814, 35.76], [139.813, 35.754], [139.817, 35.748], [139.82, 35.743], [139.825, 35.736], [139.843, 35.719]]], [[[139.835, 35.703], [139.842, 35.7], [139.846, 35.698], [139.848, 35.695], [139.848, 35.689], [139.846, 35.685], [139.847, 35.683], [139.846, 35.681], [139.849, 35.68], [139.847, 35.675], [139.846, 35.659], [139.846, 35.652], [139.846, 35.647], [139.85, 35.646], [139.849, 35.643], [139.852, 35.642], [139.855, 35.64], [139.858, 35.639], [139.862, 35.639], [139.871, 35.639], [139.872, 35.637], [139.874, 35.64], [139.883, 35.644], [139.883, 35.645], [139.887, 35.654], [139.887, 35.656], [139.887, 35.664], [139.887, 35.669], [139.886, 35.671], [139.886, 35.675], [139.886, 35.679], [139.888, 35.68], [139.894, 35.682], [139.904, 35.683], [139.906, 35.684], [139.909, 35.685], [139.914, 35.691], [139.919, 35.698], [139.919, 35.7], [139.917, 35.705], [139.916, 35.708], [139.913, 35.711], [139.908, 35.714], [139.906, 35.718], [139.904, 35.72], [139.899, 35.724], [139.897, 35.727], [139.898, 35.732], [139.901, 35.737], [139.901, 35.74], [139.899, 35.744], [139.897, 35.747], [139.893, 35.748], [139.89, 35.751], [139.883, 35.75], [139.881, 35.749], [139.885, 35.745], [139.88, 35.742], [139.877, 35.741], [139.877, 35.739], [139.873, 35.735], [139.872, 35.733], [139.872, 35.729], [139.87, 35.729], [139.871, 35.725], [139.869, 35.724], [139.866, 35.719], [139.868, 35.715], [139.868, 35.713], [139.864, 35.713], [139.861, 35.715], [139.855, 35.714], [139.855, 35.713], [139.851, 35.711], [139.843, 35.719], [139.84, 35.717], [139.837, 35.718], [139.835, 35.718], [139.833, 35.716], [139.834, 35.714], [139.836, 35.712], [139.839, 35.711], [139.84, 35.71], [139.835, 35.706], [139.835, 35.703]]]]}}]}